EIN,NAME,Address,STREET,CITY,STATE,ZIP
10832520,FRIENDS OF THE ASA WRIGHT NATURE CENTRE INC,"1013 WESTCHESTER WAY CINCINNATI, OH 45244-5007",1013 WESTCHESTER WAY,CINCINNATI,OH,45244-5007
10873300,GREATER CLEVELAND SOCCER OFFICIALS ASSOCIATION,"1002 STONEY RUN TRL BROADVIEW HTS, OH 44147-2552",1002 STONEY RUN TRL,BROADVIEW HTS,OH,44147-2552
10917297,NAMI OF LAKE COUNTY,"1 VICTORIA PL STE 100 PAINESVILLE, OH 44077-3446",1 VICTORIA PL STE 100,PAINESVILLE,OH,44077-3446
10935379,AMERICAN LEGION AUXILIARY,"1 CANAL COURT NEWCOMERSTOWN, OH 43832-0000",1 CANAL COURT,NEWCOMERSTOWN,OH,43832-0000
10964749,AMVETS,"1 W MAIN ST HAYESVILLE, OH 44838-6510",1 W MAIN ST,HAYESVILLE,OH,44838-6510
20596263,FREDERICKTOWN FREE WILL BAPTIST CHURCH,"102 COLUMBUS RD FREDERICKTOWN, OH 43019-1217",102 COLUMBUS RD,FREDERICKTOWN,OH,43019-1217
20665070,THE INDIAN HILL WINTER CLUB INC,"10005 FLETCHER ROAD CINCINNATI, OH 45111-0000",10005 FLETCHER ROAD,CINCINNATI,OH,45111-0000
30317160,CHILD DIMENSIONS INSURANCE COMPANY,"1 PERKINS SQ AKRON, OH 44308-1063",1 PERKINS SQ,AKRON,OH,44308-1063
30389456,FREE & ACCEPTED MASONS OF OHIO,"10200 MEMPHIS AVE BROOKLYN, OH 44144-2037",10200 MEMPHIS AVE,BROOKLYN,OH,44144-2037
36100828,BILL AND JACKIE LOCKWOOD FAMILY FOUNDATION,"1 CARTER TALBOT CT DAYTON, OH 45419-2904",1 CARTER TALBOT CT,DAYTON,OH,45419-2904
43732828,RESIDENCE CONNECTION INC,"1015 KLOTZ ROAD BOWLING GREEN, OH 43402-4881",1015 KLOTZ ROAD,BOWLING GREEN,OH,43402-4881
43748316,GLASS CITY ACADEMY,"1000 MONROE ST TOLEDO, OH 43604-5953",1000 MONROE ST,TOLEDO,OH,43604-5953
43762083,SIGMA TAU GAMMA FRATERNITY,"1 UNIVERSITY PLZ YOUNGSTOWN, OH 44555-0001",1 UNIVERSITY PLZ,YOUNGSTOWN,OH,44555-0001
43849608,FLIER FOOTBALL FOUNDATION INC,"1015 RACE ST CLYDE, OH 43410-1832",1015 RACE ST,CLYDE,OH,43410-1832
50552679,GRACE CHAPEL,"09491 SANTA FE LINE RD WAPAKONETA, OH 45895-8863",09491 SANTA FE LINE RD,WAPAKONETA,OH,45895-8863
50593036,RIDGEWOOD WETLAND ASSOCIATION INC,"101 W 4TH ST W LAFAYETTE, OH 43845-1305",101 W 4TH ST,W LAFAYETTE,OH,43845-1305
61308676,PETERMAN AND DEMINICO FAMILY FOUNDATION INC,"10 MURWOOD DR MORELAND HLS, OH 44022-1171",10 MURWOOD DR,MORELAND HLS,OH,44022-1171
113739822,MOUNT ZION MISSIONARY BAPTIST CHURCH,"1000 YANKEE RD MIDDLETOWN, OH 45044-5757",1000 YANKEE RD,MIDDLETOWN,OH,45044-5757
113816707,CATHOLIC INTERNET TELEVISION NETWORK,"100 HUFFMAN AVE APT 305 DAYTON, OH 45403-1966",100 HUFFMAN AVE APT 305,DAYTON,OH,45403-1966
113837972,KIWANIS INTERNATIONAL INC,"1003 TERRACE AVE COLDWATER, OH 45828-1432",1003 TERRACE AVE,COLDWATER,OH,45828-1432
131623940,CHRISTIAN & MISSIONARY ALLIANCE,"1 ALLIANCE PL REYNOLDSBURG, OH 43068-3563",1 ALLIANCE PL,REYNOLDSBURG,OH,43068-3563
136877098,LEIGHTON ROSENTHAL FAMILY FOUNDATION,"1001 LAKESIDE AVENUE 1105 CLEVELAND, OH 44114-1158",1001 LAKESIDE AVENUE 1105,CLEVELAND,OH,44114-1158
141854301,GARFIELD BAND BOOSTERS ASSOCIATION,"10233 STATE ROUTE 88 GARRETTSVILLE, OH 44231-9205",10233 STATE ROUTE 88,GARRETTSVILLE,OH,44231-9205
141860253,INTERNATIONAL ASSOCIATION OF LIONS CLUBS,"1025 LECTRIC LN ZANESVILLE, OH 43701-9483",1025 LECTRIC LN,ZANESVILLE,OH,43701-9483
142014555,BIBLE TRUTH BAPTIST CHURCH,"10 PINE ST THE PLAINS, OH 45780-1129",10 PINE ST,THE PLAINS,OH,45780-1129
161639511,PROJECT GRAD AKRON,"10 NORTH MAIN ST STE 503 AKRON, OH 44308-1958",10 NORTH MAIN ST STE 503,AKRON,OH,44308-1958
161753226,PJ MEDURI MINISTRIES,"1005 COTTAGE GATE DR KENT, OH 44240-5408",1005 COTTAGE GATE DR,KENT,OH,44240-5408
200192793,LAFAYETTE JACKSON HISTORICAL SOCIETY,"101 W MAIN ST LAFAYETTE, OH 45854-0000",101 W MAIN ST,LAFAYETTE,OH,45854-0000
200271044,CINCINNATI CENTER FOR AUTISM,"100 COMMERCIAL DR FAIRFIELD, OH 45014-5556",100 COMMERCIAL DR,FAIRFIELD,OH,45014-5556
200545972,AKRON USA INC,"1 CANAL SQUARE PLZ APT 1402 AKRON, OH 44308-1061",1 CANAL SQUARE PLZ APT 1402,AKRON,OH,44308-1061
200603765,GARRISON PLACE INC,"1000 ELM ST FELICITY, OH 45120-9558",1000 ELM ST,FELICITY,OH,45120-9558
200610207,THE MORSE AND BETTY JOHNSON FAMILY FOUNDATION,"1 E 4TH ST STE 700 CINCINNATI, OH 45202-3705",1 E 4TH ST STE 700,CINCINNATI,OH,45202-3705
200855857,CINCINNATI BASEBALL MUSEUM,"100 MAIN STREET CINCINNATI, OH 45202-0000",100 MAIN STREET,CINCINNATI,OH,45202-0000
200996799,WILLOW BROOK CHRISTIAN SERVICES,"100 DELAWARE CROSSING W DELAWARE, OH 43015-7853",100 DELAWARE CROSSING W,DELAWARE,OH,43015-7853
201253104,BEDACHT FOUNDATION,"1000 JACKSON ST TOLEDO, OH 43604-5515",1000 JACKSON ST,TOLEDO,OH,43604-5515
201359442,SHINKLE FOUNDATION,"10140 KINGSPORT DR CINCINNATI, OH 45241-3141",10140 KINGSPORT DR,CINCINNATI,OH,45241-3141
201736709,RICHLAND COUNTY AUXILLARY FAIRHAVEN CAFETERIA,"1018 LEXINGTON AVE MANSFIELD, OH 44907-2248",1018 LEXINGTON AVE,MANSFIELD,OH,44907-2248
201866978,COMMUNITY ACTION OF APPALACHIAN OHIO,"1 PINCHOT PL ATHENS, OH 45701-2135",1 PINCHOT PL,ATHENS,OH,45701-2135
201938332,CAMBRIDGE CHARITABLE FOUNDATION,"1 E 4TH ST STE 700 CINCINNATI, OH 45202-3705",1 E 4TH ST STE 700,CINCINNATI,OH,45202-3705
201999213,LORAIN COUNTY MANUFACTURING COUNCIL,"1005 NORTH ABBE ROAD CC217 ELYRIA, OH 44035-1613",1005 NORTH ABBE ROAD CC217,ELYRIA,OH,44035-1613
202060559,THE OHIO STATE UNIVERSITY,"10075 DAVIS RD HILLSBORO, OH 45133-7848",10075 DAVIS RD,HILLSBORO,OH,45133-7848
202236723,GREATER LOGAN COUNTY AREA COMMUNITY IMPROVEMENT CORPORATION,"100 S MAIN ST BELLEFONTAINE, OH 43311-2007",100 S MAIN ST,BELLEFONTAINE,OH,43311-2007
202272848,HUG FUND,"100 MADISON AVE TOLEDO, OH 43604-1516",100 MADISON AVE,TOLEDO,OH,43604-1516
202596327,HARTVILLE INNOVATIVE HOUSING SOLUTIONS INC,"1002 E BROAD ST LOUISVILLE, OH 44641-1807",1002 E BROAD ST,LOUISVILLE,OH,44641-1807
202610522,MODERN WOODMEN OF AMERICA,"1026 MARSEILLES GALION RD E MARION, OH 43302-9775",1026 MARSEILLES GALION RD E,MARION,OH,43302-9775
202841002,WESTERN RESERVE ROWING ASSOCIATION,"1003 BRITISH ST CLEVELAND, OH 44113-2464",1003 BRITISH ST,CLEVELAND,OH,44113-2464
203311772,UNITED STATES BOWLING CONGRESS INC,"1010 N MAIN ST BOWLING GREEN, OH 43402-1301",1010 N MAIN ST,BOWLING GREEN,OH,43402-1301
203386656,GARDEN CLUB OF OHIO INC,"1003 COLLEGE BLVD ASHLAND, OH 44805-3809",1003 COLLEGE BLVD,ASHLAND,OH,44805-3809
203444934,OPERA WESTERN RESERVE INCOPORATED,"1000 5TH AVENUE YOUNGSTOWN, OH 44504-1673",1000 5TH AVENUE,YOUNGSTOWN,OH,44504-1673
203508440,ARROW YOUTH PARK FOUNDATION,"1 JOY LN CAMDEN, OH 45311-1108",1 JOY LN,CAMDEN,OH,45311-1108
203573106,CANFIELD BOYS BASKETBALL BOOSTERS,"100 CARDINAL DR CANFIELD, OH 44406-1111",100 CARDINAL DR,CANFIELD,OH,44406-1111
203606884,LABRAE FOOTBALL BOOSTERS,"1001 N LEAVITT RD LEAVITTSBURG, OH 44430-9644",1001 N LEAVITT RD,LEAVITTSBURG,OH,44430-9644
203738865,KNIGHTS OF COLUMBUS,"1000 W WENGER RD ENGLEWOOD, OH 45322-2108",1000 W WENGER RD,ENGLEWOOD,OH,45322-2108
203820153,MORSHANA FOUNDATION,"10 HYDE PARK BEACHWOOD, OH 44122-7520",10 HYDE PARK,BEACHWOOD,OH,44122-7520
204405914,GREATER CINCINNATI VOICE OF THE FAITHFUL INC,"10016 SOMERSET DR LOVELAND, OH 45140-1863",10016 SOMERSET DR,LOVELAND,OH,45140-1863
204583684,THE OHIO STATE UNIVERSITY,"10185 STATE ROUTE 219 NEW KNOXVILLE, OH 45871-9613",10185 STATE ROUTE 219,NEW KNOXVILLE,OH,45871-9613
204607204,DAYTON BUSINESS TECHNOLOGY HIGH SCHOOL,"1 S MAIN ST STE 1600 DAYTON, OH 45402-2088",1 S MAIN ST STE 1600,DAYTON,OH,45402-2088
205095911,THE OHIO STATE UNIVERSITY,"1016 STOVER RD W ALEXANDRIA, OH 45381-9394",1016 STOVER RD,W ALEXANDRIA,OH,45381-9394
205111063,SAVE CATS AND OBLITERATE OVERPOPULATION,"10191 LEACREST RD CINCINNATI, OH 45215-1310",10191 LEACREST RD,CINCINNATI,OH,45215-1310
205712451,US MILITARY VETS MOTORCYCLE CLUB,"1008 CENTRAL AVE SANDUSKY, OH 44870-3274",1008 CENTRAL AVE,SANDUSKY,OH,44870-3274
205734463,PIQUA INDIAN ATHLETIC BOOSTERS,"1 INDIAN TRL PIQUA, OH 45356-9257",1 INDIAN TRL,PIQUA,OH,45356-9257
205927824,MAHONING LAND BANK SUPPORT FUND,"100 E FEDERAL ST STE 300 YOUNGSTOWN, OH 44503-1810",100 E FEDERAL ST STE 300,YOUNGSTOWN,OH,44503-1810
208367768,HEALTH OCCUPATIONS STUDENTS OF AMERICA,"10228 HYLAND RUN PLAIN CITY, OH 43064-3627",10228 HYLAND RUN,PLAIN CITY,OH,43064-3627
208595728,SOUTH DAYTON KNIGHTS,"1005 YORKSHIRE PL DAYTON, OH 45419-3730",1005 YORKSHIRE PL,DAYTON,OH,45419-3730
208734161,PROMEDICA CHILDRENS SPECIALISTS,"100 MADISON AVE TOLEDO, OH 43604-1516",100 MADISON AVE,TOLEDO,OH,43604-1516
208925180,COMMUNICARE HEALTH BENEFITS TRUST,"10123 ALLIANCE RD BLUE ASH, OH 45242-4887",10123 ALLIANCE RD,BLUE ASH,OH,45242-4887
208934153,OHIO STATE UNIVERSITY,"1010 CENTER BEND RD BEVERLY, OH 45715-9549",1010 CENTER BEND RD,BEVERLY,OH,45715-9549
222762750,ASSOCIATION FOR COMPUTING MACHINERY,"1000 N MAIN ST FINDLAY, OH 45840-3653",1000 N MAIN ST,FINDLAY,OH,45840-3653
232534913,MUTUAL AID SHARING PLAN,"10055 ROSEDALE MILFORD CENTER RD IRWIN, OH 43029-9509",10055 ROSEDALE MILFORD CENTER RD,IRWIN,OH,43029-9509
237011976,INTERNATIONAL ASSOCIATION OF LIONS CLUBS,"1 RAILROAD ST JEFFERSONVLLE, OH 43128-1025",1 RAILROAD ST,JEFFERSONVLLE,OH,43128-1025
237035246,INTERNATIONAL ASSOCIATION OF FIRE FIGHTERS,"1011 W 8TH ST CINCINNATI, OH 45203-1205",1011 W 8TH ST,CINCINNATI,OH,45203-1205
237050040,HOPE CHEST INC THE,"1 VICTORIA PLACE SUITE 321 PAINESVILLE, OH 44077-3466",1 VICTORIA PLACE SUITE 321,PAINESVILLE,OH,44077-3466
237062854,INTERNATIONAL ASSOCIATION OF FIRE FIGHTERS,"1016 GRANDVIEW AVE GRANDVIEW, OH 43212-3432",1016 GRANDVIEW AVE,GRANDVIEW,OH,43212-3432
237069109,PERRY CLASSROOM TEACHERS ASSOCIATION,"1 SUCCESS BLVD PERRY, OH 44081-9404",1 SUCCESS BLVD,PERRY,OH,44081-9404
237085581,GRACE BRETHREN VILLAGE INC,"1010 TAYWOOD RD ENGLEWOOD, OH 45322-2400",1010 TAYWOOD RD,ENGLEWOOD,OH,45322-2400
237091755,NEW LONDON EDUCATION ASSOCIATION,"1 WILDCAT DR NEW LONDON, OH 44851-9262",1 WILDCAT DR,NEW LONDON,OH,44851-9262
237103999,KNIGHTS OF COLUMBUS,"102 GAYWOOD DR ST CLAIRSVLE, OH 43950-1006",102 GAYWOOD DR,ST CLAIRSVLE,OH,43950-1006
237114013,AKRON CHILDRENS HOSPITAL FOUNDATION,"1 PERKINS SQ AKRON, OH 44308-1063",1 PERKINS SQ,AKRON,OH,44308-1063
237122420,BLUFFTON EDUCATION ASSOCIATION,"102 S JACKSON ST BLUFFTON, OH 45817-1218",102 S JACKSON ST,BLUFFTON,OH,45817-1218
237129919,MAPLE HEIGHTS TEACHERS ASSOCIATION,"1 MUSTANG WAY MAPLE HEIGHTS, OH 44137-2671",1 MUSTANG WAY,MAPLE HEIGHTS,OH,44137-2671
237132368,PIKE COMMUNITY HOSP GUILD ASSOC,"100 DAWN LANE WAVERLY, OH 45690-9138",100 DAWN LANE,WAVERLY,OH,45690-9138
237140834,COLUMBIAN ASSOCIATION OF NILES OHIO,"1024 VIENNA AVE NILES, OH 44446-2706",1024 VIENNA AVE,NILES,OH,44446-2706
237145594,KNIGHTS TEMPLAR OF THE UNITED STATES OF AMERICA,"1 W ARLINGTON DR TRENTON, OH 45067-8630",1 W ARLINGTON DR,TRENTON,OH,45067-8630
237148000,UNITED WAY OF CLINTON COUNTY INC,"100 W MAIN ST WILMINGTON, OH 45177-2480",100 W MAIN ST,WILMINGTON,OH,45177-2480
237159465,ROYAL ARCH MASONS OF OHIO,"1016 WOODLAND CHASE GRAFTON, OH 44044-1261",1016 WOODLAND CHASE,GRAFTON,OH,44044-1261
237161957,DELTA KAPPA GAMMA SOCIETY,"06573 SOUTHLAND RD NEW KNOXVILLE, OH 45871-9705",06573 SOUTHLAND RD,NEW KNOXVILLE,OH,45871-9705
237167582,CATHOLIC DAUGHTERS OF THE AMERICAS,"1008 WILLIAM AVE DELPHOS, OH 45833-9261",1008 WILLIAM AVE,DELPHOS,OH,45833-9261
237176494,FRATERNAL ORDER OF POLICE,"100 EXECUTIVE DR MARION, OH 43302-6306",100 EXECUTIVE DR,MARION,OH,43302-6306
237187503,GRAFTON VOLUNTEER FIRE DEPARTMENT,"1013 CHESTNUT ST GRAFTON, OH 44044-1406",1013 CHESTNUT ST,GRAFTON,OH,44044-1406
237193353,FREE & ACCEPTED MASONS OF OHIO,"100 SOUTH MAIN STREET WELLINGTON, OH 44090-1369",100 SOUTH MAIN STREET,WELLINGTON,OH,44090-1369
237252905,PTA OHIO CONGRESS,"1 EDUCATIONAL PARK DR SEVEN HILLS, OH 44131-4439",1 EDUCATIONAL PARK DR,SEVEN HILLS,OH,44131-4439
237253847,DOMINION MIDDLE SCHOOL PARENT TEACHER STUDENT ORGANIZATION,"100 E ARCADIA AVE COLUMBUS, OH 43202-2641",100 E ARCADIA AVE,COLUMBUS,OH,43202-2641
237253947,PTA OHIO CONGRESS,"1001 DEMOREST RD COLUMBUS, OH 43204-1043",1001 DEMOREST RD,COLUMBUS,OH,43204-1043
237260829,FREE & ACCEPTED MASONS OF OHIO,"101 WORSHIRE RD BELLVILLE, OH 44813-1037",101 WORSHIRE RD,BELLVILLE,OH,44813-1037
237266687,FIELD & STREAM BOWHUNTERS OF FINDLAY OHIO,"1023 CYPRESS AVE FINDLAY, OH 45840-4726",1023 CYPRESS AVE,FINDLAY,OH,45840-4726
237267212,PTA OHIO CONGRESS,"1 LEARNING LN PERRY, OH 44081-9422",1 LEARNING LN,PERRY,OH,44081-9422
237269568,FREE & ACCEPTED MASONS OF OHIO,"10200 MEMPHIS AVE BROOKLYN, OH 44144-2037",10200 MEMPHIS AVE,BROOKLYN,OH,44144-2037
237282583,THETA CHI FRATERNITY INC,"1000 N MAIN STREET BOX 1551 FINDLAY, OH 45840-3653",1000 N MAIN STREET BOX 1551,FINDLAY,OH,45840-3653
237301468,PENGUIN CLUB,"1 UNIVERSITY PLZ YOUNGSTOWN, OH 44555-0001",1 UNIVERSITY PLZ,YOUNGSTOWN,OH,44555-0001
237310998,EDGEWATER HOMEOWNERS ASSOCIATION,"10210 EDGEWATER DR CLEVELAND, OH 44102-6122",10210 EDGEWATER DR,CLEVELAND,OH,44102-6122
237321694,COMMUNITY IMPROVEMENT CORPORATION OF WILMINGTON,"101 N SOUTH ST WILMINGTON, OH 45177-1646",101 N SOUTH ST,WILMINGTON,OH,45177-1646
237323562,LICKING COUNTY GENEALOGICAL SOCIETY A CHAPTER OF THE OHIO GENEALOGICAL,"101 W MAIN ST NEWARK, OH 43055-5062",101 W MAIN ST,NEWARK,OH,43055-5062
237335934,ADA SENIOR CITIZENS SERVICES INC,"1023 BEECH ST ADA, OH 45810-1690",1023 BEECH ST,ADA,OH,45810-1690
237337881,AGUDATH ACHIM OF CINCINNATI,"1 E 4TH ST STE 700 CINCINNATI, OH 45202-3705",1 E 4TH ST STE 700,CINCINNATI,OH,45202-3705
237346617,BROOKVILLE BAND ASSOCIATION,"1 BLUE PRIDE DR BROOKVILLE, OH 45309-1451",1 BLUE PRIDE DR,BROOKVILLE,OH,45309-1451
237361098,AMERICAN BRITANY CLUB INC,"10051 AMITY PIKE PLAIN CITY, OH 43064-9109",10051 AMITY PIKE,PLAIN CITY,OH,43064-9109
237370327,NALS INC,"1007 BALTZLEY VALLEY RD SE NEW PHILA, OH 44663-7706",1007 BALTZLEY VALLEY RD SE,NEW PHILA,OH,44663-7706
237376646,TAU BETA PI ASSOCIATION INC,"1 TRESSEL WAY YOUNGSTOWN, OH 44555-9703",1 TRESSEL WAY,YOUNGSTOWN,OH,44555-9703
237384013,NATIONAL TREASURY EMPLOYEES UNION,"10 E COMMERCE ST RM 110 YOUNGSTOWN, OH 44503-1679",10 E COMMERCE ST RM 110,YOUNGSTOWN,OH,44503-1679
237403734,CORTVIEW VILLAGE,"100 CORTVIEW DR CORTLAND, OH 44410-1403",100 CORTVIEW DR,CORTLAND,OH,44410-1403
237404778,TRUE HOPE BIBLE CHURCH,"10172 CHILLICOTHE RD KIRTLAND, OH 44094-9731",10172 CHILLICOTHE RD,KIRTLAND,OH,44094-9731
237418083,AMERICAN ELECTRIC POWER SYSTEM EDUCATIONAL TRUST FUND,"1 RIVERSIDE PLAZA ATTN TAX DEPT COLUMBUS, OH 43215-2355",1 RIVERSIDE PLAZA ATTN TAX DEPT,COLUMBUS,OH,43215-2355
237418153,AURORA EDUCATION ASSOCIATION,"102 E GARFIELD RD AURORA, OH 44202-8854",102 E GARFIELD RD,AURORA,OH,44202-8854
237419897,KETTERING MEDICAL CENTER FOUNDATION,"1 PRESTIGE PLACE 910 MIAMISBURG, OH 45342-3794",1 PRESTIGE PLACE 910,MIAMISBURG,OH,45342-3794
237420666,WEATHERVANE PLAYHOUSE,"100 PRICE RD NEWARK, OH 43055-3380",100 PRICE RD,NEWARK,OH,43055-3380
237423348,LOVELAND EDUCATION ASSOCIATION,"1 TIGER TRL LOVELAND, OH 45140-1975",1 TIGER TRL,LOVELAND,OH,45140-1975
237424268,BETHLEHEM WILLIAMS,"04016 CR M50 EDON, OH 43518-0000",04016 CR M50,EDON,OH,43518-0000
237425233,OHIO ASSOCIATION OF JUVENILE COURT JUDGES,"100 E COURT ST SIDNEY, OH 45365-3022",100 E COURT ST,SIDNEY,OH,45365-3022
237437765,SPRINGFIELD REGIONAL MEDICAL CENTER AUXILIARY,"100 MEDICAL CENTER DR SPRINGFIELD, OH 45504-2687",100 MEDICAL CENTER DR,SPRINGFIELD,OH,45504-2687
237442681,DAYTON DREXEL CHURCH OF THE NAZARENE,"101 DREXEL AVE DAYTON, OH 45417-0000",101 DREXEL AVE,DAYTON,OH,45417-0000
237503440,ORDER OF THE EASTERN STAR OF OHIO,"1 MARY LN W ALEXANDRIA, OH 45381-9388",1 MARY LN,W ALEXANDRIA,OH,45381-9388
237504035,FREE & ACCEPTED MASONS OF OHIO,"100 AMBER DR WEST UNION, OH 45693-9638",100 AMBER DR,WEST UNION,OH,45693-9638
237504299,FREE & ACCEPTED MASONS OF OHIO,"1009 KENMORE BLVD AKRON, OH 44314-2153",1009 KENMORE BLVD,AKRON,OH,44314-2153
237537516,AMERICAN MUTUAL LIFE ASSOCIATION,"101 PINE HOLLOW CIR CHARDON, OH 44024-1490",101 PINE HOLLOW CIR,CHARDON,OH,44024-1490
237544470,KNIGHTS OF COLUMBUS,"1013 KENILWORTH AVE CLEVELAND, OH 44113-4422",1013 KENILWORTH AVE,CLEVELAND,OH,44113-4422
237563412,KNIGHTS OF PYTHIAS,"101 NORTH MAIN STREET BLOOMDALE, OH 44817-0000",101 NORTH MAIN STREET,BLOOMDALE,OH,44817-0000
237586078,FRATERNAL ORDER OF POLICE,"1013 ARLINGTON ST FREMONT, OH 43420-1601",1013 ARLINGTON ST,FREMONT,OH,43420-1601
237586093,GIRARD LODGE 52 OF THE FRATERNAL ORDER OF POLICE OF THE ST OF OHIO,"100 N MARKET ST STE B GIRARD, OH 44420-2557",100 N MARKET ST STE B,GIRARD,OH,44420-2557
237592816,FRATERNAL ORDER OF EAGLES,"101 W WALNUT ST COLDWATER, OH 45828-1770",101 W WALNUT ST,COLDWATER,OH,45828-1770
250848450,CENTURY NATIONAL BANK & TRUST CO,"10 E MAIN ST SALINEVILLE, OH 43945-1134",10 E MAIN ST,SALINEVILLE,OH,43945-1134
256065880,INTERNATIONAL BROTHERHOOD IRON SHIP BLDRS BOILERMAKERS BLACKSMITH FORG,"1002 SOUTHWOOD DR ASHTABULA, OH 44004-2366",1002 SOUTHWOOD DR,ASHTABULA,OH,44004-2366
260039809,AMVETS,"1 W MAIN ST HAYESVILLE, OH 44838-6510",1 W MAIN ST,HAYESVILLE,OH,44838-6510
260213431,FRIENDS OF CAMP PERRY,"1000 LAWERANCE ROAD PORT CLINTON, OH 43452-0000",1000 LAWERANCE ROAD,PORT CLINTON,OH,43452-0000
260227278,CANFIELD SCHOOLS CROSS COUNTRYBOOSTER CLUB,"100 CARDINAL DR CANFIELD, OH 44406-1111",100 CARDINAL DR,CANFIELD,OH,44406-1111
260324790,PROMEDICA COURIER SERVICES INC,"100 MADISON AVE TOLEDO, OH 43604-1516",100 MADISON AVE,TOLEDO,OH,43604-1516
260460914,CONGER PTO,"10 CHANNING ST DELAWARE, OH 43015-2077",10 CHANNING ST,DELAWARE,OH,43015-2077
260570016,SUPERIOR TREASURES,"10100 RIDGEWOOD DR TWINSBURG, OH 44087-1121",10100 RIDGEWOOD DR,TWINSBURG,OH,44087-1121
260606361,C4C MINISTRIES,"100 46TH ST SANDUSKY, OH 44870-4896",100 46TH ST,SANDUSKY,OH,44870-4896
261185364,VINE AND BRANCHES INDIA MINISTRIES,"1023 CONCORD DR MEDINA, OH 44256-3006",1023 CONCORD DR,MEDINA,OH,44256-3006
261352360,THE OHIO STATE UNIVERSITY,"10236 BENNER RD RITTMAN, OH 44270-9712",10236 BENNER RD,RITTMAN,OH,44270-9712
261377042,TOUCH HEAVEN MINISTRIES INC,"10 SKYLINE DR CANFIELD, OH 44406-1233",10 SKYLINE DR,CANFIELD,OH,44406-1233
261387549,OHIO STATE UNIVERSITY,"100 STATE ROUTE 309 ADA, OH 45810-9428",100 STATE ROUTE 309,ADA,OH,45810-9428
261421067,THE OHIO STATE UNIVERSITY,"06879 EVANSPORT ROAD DEFIANCE, OH 43512-6766",06879 EVANSPORT ROAD,DEFIANCE,OH,43512-6766
261445530,THE OHIO STATE UNIVERSITY,"1015 OVERLOOK AVE RAVENNA, OH 44266-2633",1015 OVERLOOK AVE,RAVENNA,OH,44266-2633
261559254,GREAT PARKS FOREVER,"10245 WINTON RD CINCINNATI, OH 45231-2626",10245 WINTON RD,CINCINNATI,OH,45231-2626
261590372,CISE FOUNDATION,"100 E EIGHTH STREET CINCINNATI, OH 45202-2129",100 E EIGHTH STREET,CINCINNATI,OH,45202-2129
261628617,THE OHIO STATE UNIVERSITY,"10252 HOEL RD ADDRESS LINE 2 CAMDEN, OH 45311-8658",10252 HOEL RD ADDRESS LINE 2,CAMDEN,OH,45311-8658
261672457,ANTIOCH COLLEGE CORPORATION,"1 MORGAN PL YELLOW SPGS, OH 45387-1683",1 MORGAN PL,YELLOW SPGS,OH,45387-1683
261788853,PLAY IT FORWARD INC,"1 GREENHOUSE LN CINCINNATI, OH 45209-2316",1 GREENHOUSE LN,CINCINNATI,OH,45209-2316
261819333,BETA THETA PI FRATERNITY,"1 JOHN CARROLL BLVD UNIVERSITY HT, OH 44118-4538",1 JOHN CARROLL BLVD,UNIVERSITY HT,OH,44118-4538
262020567,THE OHIO STATE UNIVERSITY,"10080 STATE ROUTE 18 HAMLER, OH 43524-9642",10080 STATE ROUTE 18,HAMLER,OH,43524-9642
262026042,SOUTHWEST LICKING SCHOOLS EDUCATIONAL FOUNDATION,"10039 HOLLOW RD SW PATASKALA, OH 43062-8543",10039 HOLLOW RD SW,PATASKALA,OH,43062-8543
262089996,BUCKEYE GERMAN SHORTHAIRED POINTER,"1 SHEFFIELD LN LIMA, OH 45805-3820",1 SHEFFIELD LN,LIMA,OH,45805-3820
262515660,THE OHIO STATE UNIVERSITY,"10115 CHERRY LN NW BALTIMORE, OH 43105-9654",10115 CHERRY LN NW,BALTIMORE,OH,43105-9654
262521352,OHIO ENERGY AND ADVANCED MANUFACTURING CENTER INC,"101 WESTFIELD DR LIMA, OH 45805-3875",101 WESTFIELD DR,LIMA,OH,45805-3875
262581139,FRIENDS OF THE BLACKFORK,"10 HIGH SCHOOL AVE SHELBY, OH 44875-1584",10 HIGH SCHOOL AVE,SHELBY,OH,44875-1584
262636549,LIFEWAY CHURCH,"1010 W STATE ST TRENTON, OH 45067-1586",1010 W STATE ST,TRENTON,OH,45067-1586
262697779,MONROEVILLE ELEMENTARY PTO,"101 WEST ST MONROEVILLE, OH 44847-9797",101 WEST ST,MONROEVILLE,OH,44847-9797
263051020,MID-AMERICA KARATE-INC,"1020 NOTTINGHAM DR CINCINNATI, OH 45255-4769",1020 NOTTINGHAM DR,CINCINNATI,OH,45255-4769
263255359,JUNIOR LADY KNIGHTS INC,"10144 MORGAN GREY CT CENTERVILLE, OH 45458-1101",10144 MORGAN GREY CT,CENTERVILLE,OH,45458-1101
263412079,TECHGROWTH OHIO FUND,"1 OHIO UNIVERSITY ATHENS, OH 45701-2942",1 OHIO UNIVERSITY,ATHENS,OH,45701-2942
263447917,HERITAGE YOUTH-FOR-ALL-NATIONS FOUNDATION,"1002 EASTGATE DR CINCINNATI, OH 45231-5813",1002 EASTGATE DR,CINCINNATI,OH,45231-5813
263527658,OPBA CHARITABLE FOUNDATION,"10147 ROYALTON RD STE J N ROYALTON, OH 44133-4466",10147 ROYALTON RD STE J,N ROYALTON,OH,44133-4466
263567344,LAGUNA YACHT CLUB,"100 LAGUNA DR HURON, OH 44839-2655",100 LAGUNA DR,HURON,OH,44839-2655
263648665,1ST OHIO LIGHT ARTILLERY BATTERY A,"1 CAPITAL SQUARE COLUMBUS, OH 43215-4275",1 CAPITAL SQUARE,COLUMBUS,OH,43215-4275
263888045,PROMEDICA NORTHWEST OHIO CARDIOLOGY CONSULTANTS LLC,"100 MADISON AVE TOLEDO, OH 43604-1516",100 MADISON AVE,TOLEDO,OH,43604-1516
264082067,GREAT SPORTS AND LIFE CENTER,"1000 BATTLES AVE AKRON, OH 44314-2755",1000 BATTLES AVE,AKRON,OH,44314-2755
264155319,COLLECTIVE EMPOWERMENT GROUP OF CINCINNATI,"1 N COMMERCE PARK DR STE 227 LOCKLAND, OH 45215-3188",1 N COMMERCE PARK DR STE 227,LOCKLAND,OH,45215-3188
264201553,SIGMA DELTA PHI OF OTTERBEIN COLLEGE,"1 S GROVE ST WESTERVILLE, OH 43081-2004",1 S GROVE ST,WESTERVILLE,OH,43081-2004
264308958,RICHARD DESICH FOUNDATION,"1 EQUITY WAY WESTLAKE, OH 44145-1050",1 EQUITY WAY,WESTLAKE,OH,44145-1050
264368245,AMERICAN FEDERATION OF STATE COUNTY & MUNICIPAL EMPLOYEES,"100 N MARKET ST ST CLAIRSVLE, OH 43950-1220",100 N MARKET ST,ST CLAIRSVLE,OH,43950-1220
264623802,TEAM ROADRUNNERS,"100 FOX HOLLOW DR LIMA, OH 45804-3650",100 FOX HOLLOW DR,LIMA,OH,45804-3650
270014773,WINDOW ARTS ENRICHMENT,"10267 PIPPIN RD CINCINNATI, OH 45231-1861",10267 PIPPIN RD,CINCINNATI,OH,45231-1861
270121577,HANCOCK PROPERTIES FOUNDATION,"101 W SANDUSKY ST STE 207 FINDLAY, OH 45840-3276",101 W SANDUSKY ST STE 207,FINDLAY,OH,45840-3276
270199133,HOPE OUTREACH CENTER INC,"1018 MARIETTA ST ZANESVILLE, OH 43701-4433",1018 MARIETTA ST,ZANESVILLE,OH,43701-4433
270292912,FREEDOM IN HIS PRESENCE,"1002 LAKE ST STE 530 KENT, OH 44240-0000",1002 LAKE ST STE 530,KENT,OH,44240-0000
270406101,CLEAR FORK MUSIC BOOSTERS,"101 WORSHIRE RD BELLVILLE, OH 44813-1037",101 WORSHIRE RD,BELLVILLE,OH,44813-1037
270497199,HEARTLAND HOSPICE MEMORIAL FUND,"100 MADISON AVE TOLEDO, OH 43604-1516",100 MADISON AVE,TOLEDO,OH,43604-1516
270712680,BEAVERCREEK MEDICAL CENTER,"1 PRESTIGE PLACE 910 MIAMISBURG, OH 45342-3794",1 PRESTIGE PLACE 910,MIAMISBURG,OH,45342-3794
270725439,CENTURION CENTER,"10020 PAGE RD STREETSBORO, OH 44241-5142",10020 PAGE RD,STREETSBORO,OH,44241-5142
270780916,FRIENDS OF CROWELL HILAKA,"100 WANDLE AVE BEDFORD, OH 44146-2656",100 WANDLE AVE,BEDFORD,OH,44146-2656
271117150,HOCKEY PLAYERS FOR KIDS INC,"100 BROADWAY ST CINCINNATI, OH 45202-3514",100 BROADWAY ST,CINCINNATI,OH,45202-3514
271148918,ANDY NOWACKI FOUNDATION,"10 MILL MORR DR PAINESVILLE, OH 44077-1330",10 MILL MORR DR,PAINESVILLE,OH,44077-1330
271193265,NORWALK AREA VISITORS BUREAU INC,"10 W MAIN ST NORWALK, OH 44857-1408",10 W MAIN ST,NORWALK,OH,44857-1408
271280546,FREEDOM GIRLS SOCCER CLUB PARENT ORGANIZATION,"10256 DUNCAN PLAINS RD JOHNSTOWN, OH 43031-9503",10256 DUNCAN PLAINS RD,JOHNSTOWN,OH,43031-9503
271700812,ACE MENTOR PROGRAM OF CENTRAL OHIO INC,"10 W BROAD ST STE 2300 COLUMBUS, OH 43215-3484",10 W BROAD ST STE 2300,COLUMBUS,OH,43215-3484
271869040,CRIM ELEMENTARY SCHOOL PTO INC,"1020 SCOTT HAMILTON AVE BOWLING GREEN, OH 43402-3245",1020 SCOTT HAMILTON AVE,BOWLING GREEN,OH,43402-3245
271921555,THE STEWARDSHIP FOUNDATION INC,"100 E CAMPUS VIEW BLVD STE 250 COLUMBUS, OH 43235-0000",100 E CAMPUS VIEW BLVD STE 250,COLUMBUS,OH,43235-0000
271963842,DAWSON-BRYANT EDUCATION ASSOCIATION,"1 HORNET LN COAL GROVE, OH 45638-2994",1 HORNET LN,COAL GROVE,OH,45638-2994
272092779,REVITALIZATION FOUNDATION,"1 S MAIN ST STE 1300 DAYTON, OH 45402-2058",1 S MAIN ST STE 1300,DAYTON,OH,45402-2058
272247399,OHIO STATE UNIVERSITY,"10026 WEBB RD LOGAN, OH 43138-8325",10026 WEBB RD,LOGAN,OH,43138-8325
272360806,FRIENDS OF THE YOUNGSTOWN HISTORICAL CENTER OF INDUSTRY AND,"1 UNIVERSITY PLZ YOUNGSTOWN, OH 44555-0001",1 UNIVERSITY PLZ,YOUNGSTOWN,OH,44555-0001
272806583,AMERICAN FEDERATION OF STATE COUNTY & MUNICIPAL EMPLOYEES,"101516 ELIZABETH ST GOSHEN, OH 45122-0000",101516 ELIZABETH ST,GOSHEN,OH,45122-0000
272920342,PROMEDICA MONROE CARDIOLOGY PLLC,"100 MADISON AVE TOLEDO, OH 43604-1516",100 MADISON AVE,TOLEDO,OH,43604-1516
272948434,VICTORIOUS EMPOWERMENT WORSHIP CENTER,"1024 HOLDERNESS LN CINCINNATI, OH 45240-1863",1024 HOLDERNESS LN,CINCINNATI,OH,45240-1863
273254062,FRATERNAL ORDER OF POLICE,"101 HOME RD MOUNT GILEAD, OH 43338-9806",101 HOME RD,MOUNT GILEAD,OH,43338-9806
273318483,BEYOND THE WALLS CHURCH,"101 WOODFORD AVE ELYRIA, OH 44035-5436",101 WOODFORD AVE,ELYRIA,OH,44035-5436
273401380,SUMMIT BELLS INC,"1 GREENWOOD DR DOYLESTOWN, OH 44230-9787",1 GREENWOOD DR,DOYLESTOWN,OH,44230-9787
273555757,AMERICAN FOUNDRY SOCIETY,"1000 NAVE RD SE MASSILLON, OH 44646-9478",1000 NAVE RD SE,MASSILLON,OH,44646-9478
273643787,ROSSFORD CONVENTION AND VISTORS BUREAU INC,"1001 DIXIE HWY STE D ROSSFORD, OH 43460-1389",1001 DIXIE HWY STE D,ROSSFORD,OH,43460-1389
273763993,MEMORIAL PROFESSIONAL SERVICES LTD,"100 MADISON AVE TOLEDO, OH 43604-1516",100 MADISON AVE,TOLEDO,OH,43604-1516
273793807,APEX CHURCH,"1001 MOUNT VERNON AVE MARION, OH 43302-5536",1001 MOUNT VERNON AVE,MARION,OH,43302-5536
273831781,PANDORA AREA CHAMBER OF COMMERCE INC,"101 N MAIN ST BLUFFTON, OH 45817-1245",101 N MAIN ST,BLUFFTON,OH,45817-1245
273893304,PTA OHIO CONGRESS,"100 HIGH ST SOMERSET, OH 43783-9707",100 HIGH ST,SOMERSET,OH,43783-9707
274009517,HARVEST LIFE WORSHIP CENTER INC,"1003 N NORTH ST WSHNGTN CT HS, OH 43160-1146",1003 N NORTH ST,WSHNGTN CT HS,OH,43160-1146
274235856,WHITE STONE GRACE BRETHREN CHURCH,"102 PARKDALE DR JOHNSTOWN, OH 43031-1361",102 PARKDALE DR,JOHNSTOWN,OH,43031-1361
274254089,BUILDING FOR TOMORROW,"100 WEST CEDAR STREET AKRON, OH 44307-2569",100 WEST CEDAR STREET,AKRON,OH,44307-2569
274649144,AFRICAN INTERNATIONAL LUTHERAN MISSION,"1015 E MAIN ST COLUMBUS, OH 43205-2374",1015 E MAIN ST,COLUMBUS,OH,43205-2374
274826653,THE OHIO STATE UNIVERSITY,"06879 EVANSPORT ROAD DEFIANCE, OH 43512-6766",06879 EVANSPORT ROAD,DEFIANCE,OH,43512-6766
275234048,NATIONWIDE ASSOCIATE NETWORK,"1 NATIONWIDE PLZ COLUMBUS, OH 43215-2226",1 NATIONWIDE PLZ,COLUMBUS,OH,43215-2226
300011756,AMERICAN FEDERATION OF STATE COUNTY & MUNICIPAL EMPLOYEES,"10231 RAVENNA RD TWINSBURG, OH 44087-1722",10231 RAVENNA RD,TWINSBURG,OH,44087-1722
300036023,RIVER OF LIFE CHRISTIAN FELLOWSHIP,"101 CALIFORNIA PIKE BEAVER, OH 45613-9778",101 CALIFORNIA PIKE,BEAVER,OH,45613-9778
300061245,THE OHIO STATE UNIVERSITY,"1013 WINDAMERE LN SANDUSKY, OH 44870-7259",1013 WINDAMERE LN,SANDUSKY,OH,44870-7259
300063026,AMVETS,"102 S ADAMS ST MIDDLE POINT, OH 45863-9001",102 S ADAMS ST,MIDDLE POINT,OH,45863-9001
300072130,OHIO STATE UNIVERSITY,"1015 LOMBARD CHUCKERY RD PLAIN CITY, OH 43064-9699",1015 LOMBARD CHUCKERY RD,PLAIN CITY,OH,43064-9699
300133373,DOWNTOWN BELLEFONTAINE PARTNERSHIP INC,"100 S MAIN ST BELLEFONTAINE, OH 43311-2007",100 S MAIN ST,BELLEFONTAINE,OH,43311-2007
300146634,INDIAN CREEK LOCAL SCHOOL DISTRICTS FOUNDATION INC,"100 PARK DR WINTERSVILLE, OH 43953-3943",100 PARK DR,WINTERSVILLE,OH,43953-3943
300175579,ATHENS COUNTY COURT APPOINTED SPECIAL ADVOCATES GUARDIANS AD LIT,"1 SOUTH COURT STREET ATHENS, OH 45701-2824",1 SOUTH COURT STREET,ATHENS,OH,45701-2824
300207231,DAYTON PEACE MUSEUM,"10 N LUDLOW STREET DAYTON, OH 45402-1854",10 N LUDLOW STREET,DAYTON,OH,45402-1854
300223012,TRI STATE BRAIN ANEURYSM SUPPORT GROUP INC,"10005 HUMPHREY RD CINCINNATI, OH 45242-4619",10005 HUMPHREY RD,CINCINNATI,OH,45242-4619
300252370,SOUTHWEST OHIO REGION WORKFORCE INVESTMENT BOARD,"100 SCARLET OAKS DR CINCINNATI, OH 45241-1578",100 SCARLET OAKS DR,CINCINNATI,OH,45241-1578
300253152,EASTLAND NEIGHBORHOOD CORPORATION,"100 W CEDAR ST AKRON, OH 44307-2569",100 W CEDAR ST,AKRON,OH,44307-2569
300272454,COMMUNITY MERCY HEALTH SYSTEM,"100 MEDICAL CENTER DR SPRINGFIELD, OH 45504-2687",100 MEDICAL CENTER DR,SPRINGFIELD,OH,45504-2687
300277911,OHIO CREDIT UNION DEFENSE COALITION,"10 W BROAD ST STE 1100 COLUMBUS, OH 43215-3482",10 W BROAD ST STE 1100,COLUMBUS,OH,43215-3482
300350482,VINEYARD CHURCH OF DELAWARE COUNTY,"1001 W CHERRY ST SUNBURY, OH 43074-8015",1001 W CHERRY ST,SUNBURY,OH,43074-8015
300375902,ADVISORY COMMITTEE TO WESTERN RESERVE NATIONAL CEMETERY,"10175 RAWIGA RD SEVILLE, OH 44273-9750",10175 RAWIGA RD,SEVILLE,OH,44273-9750
300454623,THE OHIO STATE UNIVERSITY,"101 N MAIN ST RM 17 WOODSFIELD, OH 43793-1070",101 N MAIN ST RM 17,WOODSFIELD,OH,43793-1070
300523295,RIVER VIEW EDUCATION ASSOCIATION,"1002 HIGHLAND BLVD COSHOCTON, OH 43812-2719",1002 HIGHLAND BLVD,COSHOCTON,OH,43812-2719
300591175,MADISON COUNTY FUTURE INC,"1 NORTH MAIN ST LONDON, OH 43140-1068",1 NORTH MAIN ST,LONDON,OH,43140-1068
300996970,PEACE BY PIECE CLEVELAND,"10237 BEREA RD CLEVELAND, OH 44102-2527",10237 BEREA RD,CLEVELAND,OH,44102-2527
301424238,GATHERING HOUSE,"10012 BURTON AVE BRATENAHL, OH 44108-1003",10012 BURTON AVE,BRATENAHL,OH,44108-1003
306029354,RICHARD GORDON WENDT GIFT TRUST,"100 E WATER ST SANDUSKY, OH 44870-2524",100 E WATER ST,SANDUSKY,OH,44870-2524
310216130,CINCINNATI BETTER BUSINESS BUREAU INC,"1 E 4TH ST STE 600 CINCINNATI, OH 45202-3718",1 E 4TH ST STE 600,CINCINNATI,OH,45202-3718
310235620,CATHOLIC TELEGRAPH,"100 EAST EIGHTH STREET CINCINNATI, OH 45202-2129",100 EAST EIGHTH STREET,CINCINNATI,OH,45202-2129
310248120,UNITED UNION OF ROOFERS 42 RDWA,"1010 YALE AVE CINCINNATI, OH 45206-1219",1010 YALE AVE,CINCINNATI,OH,45206-1219
310387145,0197 UNIVERSAL 1 CREDIT UNION INC,"1 RIVER PARK DR DAYTON, OH 45409-2104",1 RIVER PARK DR,DAYTON,OH,45409-2104
310420695,REST HAVEN MEMORIAL PARK ASSOCIATION INC,"10209 PLAINFIELD RD CINCINNATI, OH 45241-3227",10209 PLAINFIELD RD,CINCINNATI,OH,45241-3227
310536651,BOY SCOUTS OF AMERICA,"10078 READING RD CINCINNATI, OH 45241-4833",10078 READING RD,CINCINNATI,OH,45241-4833
310536662,FORT HAMILTON HOSPITAL,"1 PRESTIGE PLACE 910 MIAMISBURG, OH 45342-3794",1 PRESTIGE PLACE 910,MIAMISBURG,OH,45342-3794
310536710,ARCHDIOCESE OF CINCINNATI CATHOLIC EDUCATION OFFICE,"100 E EIGHTH ST CINCINNATI, OH 45202-2129",100 E EIGHTH ST,CINCINNATI,OH,45202-2129
310538501,ARCHDIOCESE OF CINCINNATI,"100 EAST 8TH STREET CINCINNATI, OH 45202-2129",100 EAST 8TH STREET,CINCINNATI,OH,45202-2129
310548040,CHAPTER HOUSE ASSOCIATION OF CHI CHAPTER OF ALPHA DELTA PI,"1019 N FOUNTAIN AVE SPRINGFIELD, OH 45504-2227",1019 N FOUNTAIN AVE,SPRINGFIELD,OH,45504-2227
310552289,CENTRAL UNITED METHODIST CHURCH,"102 W HIGH ST SPRINGFIELD, OH 45502-1220",102 W HIGH ST,SPRINGFIELD,OH,45502-1220
310564121,DAYTON OSTEOPATHIC HOSPITAL,"1 PRESTIGE PLACE 910 MIAMISBURG, OH 45342-3794",1 PRESTIGE PLACE 910,MIAMISBURG,OH,45342-3794
310568478,LINDEN AVE BAPTIST CHURCH,"101 LINDEN AVE DAYTON, OH 45403-1918",101 LINDEN AVE,DAYTON,OH,45403-1918
310573922,COLORADO AVE BAPTIST CHURCH,"101 HEATON AVE DAYTON, OH 45410-1729",101 HEATON AVE,DAYTON,OH,45410-1729
310599379,CINCINNATI ART CLUB,"1021 PARKSIDE PL CINCINNATI, OH 45202-6601",1021 PARKSIDE PL,CINCINNATI,OH,45202-6601
310624668,MT ZION OF WOODLAWN BAPTIST CHURCH,"10180 WOODLAWN BLVD CINCINNATI, OH 45215-1325",10180 WOODLAWN BLVD,CINCINNATI,OH,45215-1325
310642935,FAIRBORN ST LUKE UNITED METHODIST CHURCH,"100 N BROAD ST FAIRBORN, OH 45324-4804",100 N BROAD ST,FAIRBORN,OH,45324-4804
310672132,DAYTON CHILDRENS HOSPITAL,"1 CHILDRENS PLZAZA DAYTON, OH 45404-0000",1 CHILDRENS PLZAZA,DAYTON,OH,45404-0000
310715552,FRIENDSHIP UNITED METHODIST CHURCH,"1025 SPRINGFIELD PIKE WYOMING, OH 45215-2636",1025 SPRINGFIELD PIKE,WYOMING,OH,45215-2636
310728087,WILLOW BROOK CHRISTIAN COMMUNITIES,"100 DELAWARE CROSSING W DELAWARE, OH 43015-7853",100 DELAWARE CROSSING W,DELAWARE,OH,43015-7853
310735977,FRANKLIN MASONIC TEMPLE ASSN INC,"100 WELLS BRIDGE DR FRANKLIN, OH 45005-0000",100 WELLS BRIDGE DR,FRANKLIN,OH,45005-0000
310736673,FITTON CENTER FOR CREATIVE ARTS,"101 S MONUMENT AVE HAMILTON, OH 45011-2833",101 S MONUMENT AVE,HAMILTON,OH,45011-2833
310737105,PASAPO BOAT CLUB,"1006 S BROAD ST LANCASTER, OH 43130-4629",1006 S BROAD ST,LANCASTER,OH,43130-4629
310785627,FAMILY HEALTH SERVICES OF EAST CENTRAL OHIO,"100 MCMILLEN DR NEWARK, OH 43055-1809",100 MCMILLEN DR,NEWARK,OH,43055-1809
310785684,COMMUNITY MERCY HEALTH PARTNERS,"100 MEDICAL CENTER DR SPRINGFIELD, OH 45504-2687",100 MEDICAL CENTER DR,SPRINGFIELD,OH,45504-2687
310798490,FAIRBORN PRESCHOOL AND DAYCARE,"100 N BROAD ST FAIRBORN, OH 45324-4804",100 N BROAD ST,FAIRBORN,OH,45324-4804
310805764,SCIOTO HILLS BAPTIST CAMP INC,"1009 MARTIN ROAD WHEELERSBURG, OH 45694-7801",1009 MARTIN ROAD,WHEELERSBURG,OH,45694-7801
310809436,GREENE MEMORIAL HOSPITAL INC,"1 PRESTIGE PLACE 910 MIAMISBURG, OH 45342-3794",1 PRESTIGE PLACE 910,MIAMISBURG,OH,45342-3794
310810220,ALPHA GROUP OF DELAWARE INC,"1000 ALPHA DR DELAWARE, OH 43015-8642",1000 ALPHA DR,DELAWARE,OH,43015-8642
310811788,CORPORATION FOR OHIO APPALACHIAN DEVELOPMENT,"1 PINCHOT PL ATHENS, OH 45701-2135",1 PINCHOT PL,ATHENS,OH,45701-2135
310812413,MEIGS COUNTY COUNCIL ON AGING INC,"100 BLAKESLEE DR MIDDLEPORT, OH 45760-1512",100 BLAKESLEE DR,MIDDLEPORT,OH,45760-1512
310813288,NORTH AMERICAN LUTHERAN CHURCH,"100 E SCHROCK RD WESTERVILLE, OH 43081-3447",100 E SCHROCK RD,WESTERVILLE,OH,43081-3447
310814891,GUERNSEY COUNTY SENIOR CITIZENS CENTER INC,"1022 CARLISLE AVE CAMBRIDGE, OH 43725-2420",1022 CARLISLE AVE,CAMBRIDGE,OH,43725-2420
310828690,FREE & ACCEPTED MASONS OF OHIO,"100 WELLS BRIDGE DR FRANKLIN, OH 45005-0000",100 WELLS BRIDGE DR,FRANKLIN,OH,45005-0000
310872941,MARIETTA FIRST CHURCH OF THE NAZARENE,"100 MILL CREEK RD MARIETTA, OH 45750-1381",100 MILL CREEK RD,MARIETTA,OH,45750-1381
310884880,GREENE MEMORIAL HOSPITAL AUXILIARY INC,"1 PRESTIGE PLACE 910 MIAMISBURG, OH 45342-3794",1 PRESTIGE PLACE 910,MIAMISBURG,OH,45342-3794
310885009,OHIO WINE PRODUCERS ASSOCIATION,"1 S BROADWAY GENEVA, OH 44041-1827",1 S BROADWAY,GENEVA,OH,44041-1827
310886949,GREENE FOUNDATION,"1 PRESTIGE PLACE 910 MIAMISBURG, OH 45342-3794",1 PRESTIGE PLACE 910,MIAMISBURG,OH,45342-3794
310891124,WEST JEFFERSON ATHLETIC BOOSTERS INC,"1 ROUGHRIDER DR W JEFFERSON, OH 43162-1360",1 ROUGHRIDER DR,W JEFFERSON,OH,43162-1360
310895102,MCARTHUR BUSINESS AND PROFESSIONAL WOMENS CLUB OF MCARTHUR OHIO,"100 EAST MAIN STREET MCARTHUR, OH 45651-1267",100 EAST MAIN STREET,MCARTHUR,OH,45651-1267
310896463,FRATERNAL ORDER OF EAGLES,"1007 HOLLANDER ST NEWARK, OH 43055-6020",1007 HOLLANDER ST,NEWARK,OH,43055-6020
310896842,SUNBURY UNITED METHODIST CHURCH,"100 W CHERRY ST SUNBURY, OH 43074-9354",100 W CHERRY ST,SUNBURY,OH,43074-9354
310898871,FIRST BAPTIST CHURCH WAYNESVILLE,"1009 LYTLE RD WAYNESVILLE, OH 45068-8474",1009 LYTLE RD,WAYNESVILLE,OH,45068-8474
310902167,BETHEL COMMUNITY CHURCH,"1020 LOWER BELLBROOK RD XENIA, OH 45385-7303",1020 LOWER BELLBROOK RD,XENIA,OH,45385-7303
310919692,AMERICAN LEGION,"1000 ST RT 35 WEST EATON, OH 45320-8641",1000 ST RT 35 WEST,EATON,OH,45320-8641
310921326,PEACE OF OUR SAVIOR LUTHERAN CHURCH,"1025 CLIFFSIDE DR NEW CARLISLE, OH 45344-2442",1025 CLIFFSIDE DR,NEW CARLISLE,OH,45344-2442
310922300,FORMICA-EVENDALE FEDERAL CREDIT UNION,"10155 READING RD CINCINNATI, OH 45241-3109",10155 READING RD,CINCINNATI,OH,45241-3109
310927482,HOLZER FOUNDATION,"100 JACKSON PIKE GALLIPOLIS, OH 45631-1560",100 JACKSON PIKE,GALLIPOLIS,OH,45631-1560
310932129,BETHANY LUTHERAN CHURCH,"1000 NOE-BIXBY RD COLUMBUS, OH 43213-0000",1000 NOE-BIXBY RD,COLUMBUS,OH,43213-0000
310934004,AMVETS,"1016 LEO ST DAYTON, OH 45404-1670",1016 LEO ST,DAYTON,OH,45404-1670
310945154,VALLEY GRANGE 1580,"100 PINE CT APT D CAMBRIDGE, OH 43725-8729",100 PINE CT APT D,CAMBRIDGE,OH,43725-8729
310955365,BIKE MIAMI VALLEY OHIO,"10 N LUDLOW ST SUITE 727 DAYTON, OH 45402-1854",10 N LUDLOW ST SUITE 727,DAYTON,OH,45402-1854
310955974,GERMAN SHEPHERD DOG CLUB OF CENTRAL OHIO,"100 CHASE RD COLUMBUS, OH 43214-1168",100 CHASE RD,COLUMBUS,OH,43214-1168
310964056,COVINGTON-NEWBERRY HISTORICAL,"101 E SPRING ST COVINGTON, OH 45318-1532",101 E SPRING ST,COVINGTON,OH,45318-1532
310965142,1291 CINCINNATI EMPLOYEES CREDIT UNION INC,"1003 HARRISON AVE STE 200 HARRISON, OH 45030-2132",1003 HARRISON AVE STE 200,HARRISON,OH,45030-2132
310968010,FRIENDS OF AULLWOOD INC,"1000 AULLWOOD RD DAYTON, OH 45414-1129",1000 AULLWOOD RD,DAYTON,OH,45414-1129
310969134,MILFORD EDUCATION ASSOCIATION,"1 EAGLES WAY MILFORD, OH 45150-2086",1 EAGLES WAY,MILFORD,OH,45150-2086
310971399,AREA AGENCY OF AGING DISTRICT 7 INC,"1 ACY AVE JACKSON, OH 45640-9562",1 ACY AVE,JACKSON,OH,45640-9562
310971606,ANNA LOCAL TEACHERS ASSOCIATION,"1 MCRILL WAY ANNA, OH 45302-5030",1 MCRILL WAY,ANNA,OH,45302-5030
310976985,REYNOLDS AND REYNOLDS EMPLOYEE FOUNDATION,"1 REYNOLDS WAY KETTERING, OH 45430-1586",1 REYNOLDS WAY,KETTERING,OH,45430-1586
310980470,FRATERNAL ORDER OF EAGLES,"1007 HOLLANDER ST NEWARK, OH 43055-6020",1007 HOLLANDER ST,NEWARK,OH,43055-6020
310980554,ALTERNATIVE RESIDENCES TWO INC,"100 W MAIN ST ST CLAIRSVILLE, OH 43950-1275",100 W MAIN ST,ST CLAIRSVILLE,OH,43950-1275
310981034,NELSONVILLE PUBLIC SQUARE INC DEW HOUSE,"10 HOPE DR ATHENS, OH 45701-2136",10 HOPE DR,ATHENS,OH,45701-2136
310993285,BETH ADAM INC,"10001 LOVELAND MADEIRA RD LOVELAND, OH 45140-8956",10001 LOVELAND MADEIRA RD,LOVELAND,OH,45140-8956
311003040,EITZ CHAIM YESHIVA,"10170 CROSIER LN BLUE ASH, OH 45242-5721",10170 CROSIER LN,BLUE ASH,OH,45242-5721
311013242,NEW CALIFORNIA PRESBYTERIAN CHURCH,"10089 INDUSTRIAL PKWY MARYSVILLE, OH 43040-8850",10089 INDUSTRIAL PKWY,MARYSVILLE,OH,43040-8850
311020672,SERVICE ASSOCIATION OF OHIO INC,"1 SHEAKLEY WAY CINCINNATI, OH 45246-3778",1 SHEAKLEY WAY,CINCINNATI,OH,45246-3778
311022688,OHIO MINORITY SUPPLIER DEVELOPMENT COUNCIL,"100 E BROAD ST STE 2460 COLUMBUS, OH 43215-3618",100 E BROAD ST STE 2460,COLUMBUS,OH,43215-3618
311027156,FIRST CHURCH OF GOD,"10 PINE ST MOUNT VERNON, OH 43050-4528",10 PINE ST,MOUNT VERNON,OH,43050-4528
311036901,FRIENDS OF THE GROOM INC,"100 MIAMI AVE TERRACE PARK, OH 45174-1175",100 MIAMI AVE,TERRACE PARK,OH,45174-1175
311039509,MOUNT OLIVE BAPTIST CHURCH OF CAMP DENNISON INC,"10048 CAMPBELL ST CAMP DENNISON, OH 45111-9718",10048 CAMPBELL ST,CAMP DENNISON,OH,45111-9718
311045247,DAYTON CHILDRENS HOSPITAL FOUNDATION,"1 CHILDRENS PLZ DAYTON, OH 45404-1873",1 CHILDRENS PLZ,DAYTON,OH,45404-1873
311050638,LEAGUE OF WOMEN VOTERS OF OHIO EDUCATION FUND,"100 E BROAD ST STE 1310 COLUMBUS, OH 43215-3631",100 E BROAD ST STE 1310,COLUMBUS,OH,43215-3631
311051688,KETTERING ADVENTIST HEALTHCARE,"1 PRESTIGE PLACE 910 MIAMISBURG, OH 45342-3794",1 PRESTIGE PLACE 910,MIAMISBURG,OH,45342-3794
311051969,ROCK HILL EDUCATION ASSOCIATION,"10254 STATE ROUTE 141 KITTS HILL, OH 45645-8664",10254 STATE ROUTE 141,KITTS HILL,OH,45645-8664
311054953,ACTORS THEATRE OF COLUMBUS,"1000 CITY PARK AVE COLUMBUS, OH 43206-2515",1000 CITY PARK AVE,COLUMBUS,OH,43206-2515
311056893,THE OHIO STATE UNIVERSITY,"10130 HILLGROVE FORT RECOVER RD UNION CITY, OH 45390-8662",10130 HILLGROVE FORT RECOVER RD,UNION CITY,OH,45390-8662
311069635,HERITAGE BIBLE CHURCH,"1004 SELLS AVE COLUMBUS, OH 43212-1326",1004 SELLS AVE,COLUMBUS,OH,43212-1326
311072406,PIKE HEALTH SERVICES INC,"100 DAWN LANE WAVERLY, OH 45690-9138",100 DAWN LANE,WAVERLY,OH,45690-9138
311072427,FRIENDSHIP CO-OPERATIVE NURSERY SCHOOL,"1025 SPRINGFIELD PIKE CINCINNATI, OH 45215-2636",1025 SPRINGFIELD PIKE,CINCINNATI,OH,45215-2636
311073057,WE CAN--BUSINESS INCUBATOR INC,"1028 CENTRAL AVENUE 28 MIDDLETOWN, OH 45044-4009",1028 CENTRAL AVENUE 28,MIDDLETOWN,OH,45044-4009
311080516,CLOUGH PIKE BAPTIST CHURCH,"1025 CLOUGH PIKE CINCINNATI, OH 45245-1915",1025 CLOUGH PIKE,CINCINNATI,OH,45245-1915
311080791,LIBERTY MISSIONARY BAPTIST CHURCH,"1009 OVERLOOK AVE CINCINNATI, OH 45238-4418",1009 OVERLOOK AVE,CINCINNATI,OH,45238-4418
311080822,ACTUARIES CLUB OF INDIANA KENTUCKY AND OHIO,"1 NATIONWIDE PLZ COLUMBUS, OH 43215-2226",1 NATIONWIDE PLZ,COLUMBUS,OH,43215-2226
311081276,COMMUNITY IMPROVEMENT CORPORATION OF LOCKLAND,"101 N COOPER AVE LOCKLAND, OH 45215-3008",101 N COOPER AVE,LOCKLAND,OH,45215-3008
311083169,READING FIRE DEPARTMENT INC,"1000 MARKET ST CINCINNATI, OH 45215-3209",1000 MARKET ST,CINCINNATI,OH,45215-3209
311083624,PREBLE COUNTY BAR & LAW LIBRARY ASSOCIATION,"101 E MAIN STREET EATON, OH 45320-1790",101 E MAIN STREET,EATON,OH,45320-1790
311084383,HAMDEN UNITED METHODIST CHURCH,"10 W CHILLICOTHE ST HAMDEN, OH 45634-0000",10 W CHILLICOTHE ST,HAMDEN,OH,45634-0000
311086387,EDGEWOOD BAPTIST CHURCH,"1010 W STATE ST TRENTON, OH 45067-1586",1010 W STATE ST,TRENTON,OH,45067-1586
311087735,BIBLE TEMPLE OF GOD OF NEWARK INC,"1 FAYE DR HEATH, OH 43055-1349",1 FAYE DR,HEATH,OH,43055-1349
311088009,FRIENDS OF THE J R CLARKE PUBLIC LIBRARY,"102 E SPRING ST COVINGTON, OH 45318-1500",102 E SPRING ST,COVINGTON,OH,45318-1500
311090663,LIFE CHURCH PENTECOSTAL CHURCH OF GOD,"101 LANCASTER DR HEATH, OH 43056-1220",101 LANCASTER DR,HEATH,OH,43056-1220
311100373,TWELFTH APPELLATE DISTRICT JUDICIAL CONFERENCE INC,"1001 REINARTZ BLVD MIDDLETOWN, OH 45042-1924",1001 REINARTZ BLVD,MIDDLETOWN,OH,45042-1924
311105890,OHIO CREDIT UNION LEAGUE,"10 W BROAD ST STE 1100 COLUMBUS, OH 43215-3482",10 W BROAD ST STE 1100,COLUMBUS,OH,43215-3482
311109984,OHIO CDC ASSOCIATION,"100 E BROAD ST STE 2350 COLUMBUS, OH 43215-3642",100 E BROAD ST STE 2350,COLUMBUS,OH,43215-3642
311113242,MILFORD ATHLETIC BOOSTERS CLUB,"1 EAGLES WAY MILFORD, OH 45150-2086",1 EAGLES WAY,MILFORD,OH,45150-2086
311116719,COLUMBUS ACTUARIAL CLUB,"1 NATIONWIDE PLAZE 04-08 COLUMBUS, OH 43215-0000",1 NATIONWIDE PLAZE 04-08,COLUMBUS,OH,43215-0000
311119998,THE CHURCH TRIUMPHANT OF COLUMBUS INC,"1001 VERA PL COLUMBUS, OH 43204-2273",1001 VERA PL,COLUMBUS,OH,43204-2273
311120614,ASTORIA ROAD BAPTIST CHURCH,"10067 ASTORIA RD MIDDLETOWN, OH 45327-9723",10067 ASTORIA RD,MIDDLETOWN,OH,45327-9723
311121043,KROGER CO HEALTH & WELFARE BENEFIT TRUST,"1014 VINE STREET CINCINNATI, OH 45202-1100",1014 VINE STREET,CINCINNATI,OH,45202-1100
311125960,SBDC INC,"100 S LIMESTONE ST SPRINGFIELD, OH 45502-1224",100 S LIMESTONE ST,SPRINGFIELD,OH,45502-1224
311127485,KETTERING AFFILIATED HEALTH SERVICES INC,"1 PRESTIGE PLACE 910 MIAMIBURG, OH 45342-3794",1 PRESTIGE PLACE 910,MIAMIBURG,OH,45342-3794
311131737,UNITED STATES MASTERS SWIMMING INC,"10275 STABLEHAND DR CINCINNATI, OH 45242-4642",10275 STABLEHAND DR,CINCINNATI,OH,45242-4642
311156690,HOLZER HEALTH SYSTEM,"100 JACKSON PIKE GALLIPOLIS, OH 45631-1560",100 JACKSON PIKE,GALLIPOLIS,OH,45631-1560
311168299,REYNOLDS AND REYNOLDS COMPANY FOUNDATION,"1 REYNOLDS WAY KETTERING, OH 45430-1586",1 REYNOLDS WAY,KETTERING,OH,45430-1586
311175717,ALLIANCE PHYSICIANS INC,"1 PRESTIGE PLACE 910 MIAMISBURG, OH 45342-3794",1 PRESTIGE PLACE 910,MIAMISBURG,OH,45342-3794
311175904,NEW LIFE CLINIC,"100 S SOUTH ST WILMINGTON, OH 45177-2216",100 S SOUTH ST,WILMINGTON,OH,45177-2216
311176151,COLUMBUS INSTITUTE FOR CONTEMPORARY JOURNALISM INCORPORATED,"1021 E BROAD ST COLUMBUS, OH 43205-1357",1021 E BROAD ST,COLUMBUS,OH,43205-1357
311181984,C H HEALTH SERVICES COMPANY,"100 MEDICAL CENTER DR SPRINGFIELD, OH 45504-2687",100 MEDICAL CENTER DR,SPRINGFIELD,OH,45504-2687
311188403,AMERICAN FEDERATION OF STATE COUNTY & MUNICIPAL EMPLOYEES,"100 TOWNSHIP ROAD 1245 PROCTORVILLE, OH 45669-8724",100 TOWNSHIP ROAD 1245,PROCTORVILLE,OH,45669-8724
311192929,KROGER CO FOUNDATION,"1014 VINE ST CINCINNATI, OH 45202-1100",1014 VINE ST,CINCINNATI,OH,45202-1100
311195114,BOESCHENSTEIN FAMILY FOUNDATION,"1011 SANDUSKY ST STE L PERRYSBURG, OH 43551-3171",1011 SANDUSKY ST STE L,PERRYSBURG,OH,43551-3171
311196068,CLARK INTERFAITH CAMPUS MINISTRY,"100 S LIMESTONE ST SPRINGFIELD, OH 45502-1224",100 S LIMESTONE ST,SPRINGFIELD,OH,45502-1224
311198844,PLEASANT VALLEY COMMUNITY CHURCH,"1008 JASPER RD PIKETON, OH 45661-9732",1008 JASPER RD,PIKETON,OH,45661-9732
311199270,PREGNANCY RESOURCE CLINIC OF CLARK COUNTY OHIO INC,"1010 S LIMESTONE ST SPRINGFIELD, OH 45505-3058",1010 S LIMESTONE ST,SPRINGFIELD,OH,45505-3058
311202749,THE OHIO STATE UNIVERSITY,"10195 HIGH POINT RD THORNVILLE, OH 43076-9799",10195 HIGH POINT RD,THORNVILLE,OH,43076-9799
311208535,PRINCETON MUSIC BOOSTERS INCORPORATED,"100 VIKING WAY CINCINNATI, OH 45246-1139",100 VIKING WAY,CINCINNATI,OH,45246-1139
311214333,JOHN BRYAN COMMUNITY POTTERY INC,"100 DAYTON ST YELLOW SPGS, OH 45387-1816",100 DAYTON ST,YELLOW SPGS,OH,45387-1816
311219467,WEAVERS GUILD OF MIAMI VALLEY,"1026 BAILEY RD WILMINGTON, OH 45177-9609",1026 BAILEY RD,WILMINGTON,OH,45177-9609
311226763,AMVETS,"10010 W STATE ROUTE 185 COVINGTON, OH 45318-8896",10010 W STATE ROUTE 185,COVINGTON,OH,45318-8896
311227539,COLUMBUS OHIO CHAPTER NATIONAL MEDICAL ASSOCIATION,"1000 ZELLER CIR PICKERINGTON, OH 43147-7547",1000 ZELLER CIR,PICKERINGTON,OH,43147-7547
311227848,FIRST CHURCH OF GOD OF MONROE,"100 EAST AVE MONROE, OH 45050-1845",100 EAST AVE,MONROE,OH,45050-1845
311230164,OHIO NATIONAL FOUNDATION,"1 FINANCIAL WAY MONTGOMERY, OH 45242-5800",1 FINANCIAL WAY,MONTGOMERY,OH,45242-5800
311233650,LOAVES AND FISHES COMMUNITY KITCHEN INC,"1014 VINE STREET CINCINNATI, OH 45202-1100",1014 VINE STREET,CINCINNATI,OH,45202-1100
311235682,IMPROVED ORDER OF RED MEN DEGREE OF POCAHONTAS OF OHIO,"1000 MINERVA AVE COLUMBUS, OH 43229-5032",1000 MINERVA AVE,COLUMBUS,OH,43229-5032
311238324,FAYETTE COUNTY - OHIO - SOCIETY FOR THE DISABLED,"1001 LEWIS ST APT 49 WSHNGTN CT HS, OH 43160-9183",1001 LEWIS ST APT 49,WSHNGTN CT HS,OH,43160-9183
311242710,FRIENDS OF EARLY MUSIC INC,"1 COLLEGE AND MAIN COLUMBUS, OH 43209-7812",1 COLLEGE AND MAIN,COLUMBUS,OH,43209-7812
311242968,SIGMA THETA TAU INC,"1 SOUTH GROVE STREET WESTERVILLE, OH 43081-0000",1 SOUTH GROVE STREET,WESTERVILLE,OH,43081-0000
311243129,GUERNSEY HEALTH CHOICES INC,"1009 STEUBENVILLE AVE CAMBRIDGE, OH 43725-2401",1009 STEUBENVILLE AVE,CAMBRIDGE,OH,43725-2401
311249522,ST THOMAS HOUSING CORPORATION,"100 MIAMI AVE TERRACE PARK, OH 45174-1175",100 MIAMI AVE,TERRACE PARK,OH,45174-1175
311250890,GREAT COMMISSION BIBLE CHURCH INC,"10200 HAMILTON AVE CINCINNATI, OH 45231-2104",10200 HAMILTON AVE,CINCINNATI,OH,45231-2104
311254021,URBAN MINORITY ALCOHOLISM AND DRUG OUTREACH PROGRAM OF DAYTON,"1 ELIZABETH PL DAYTON, OH 45417-3445",1 ELIZABETH PL,DAYTON,OH,45417-3445
311254976,HOPE HOUSE RESCUE MISSION INC,"1001 GROVE ST MIDDLETOWN, OH 45044-5890",1001 GROVE ST,MIDDLETOWN,OH,45044-5890
311266695,CLARK COUNTY LITERACY COALITION,"102 W HIGH ST SPRINGFIELD, OH 45502-1220",102 W HIGH ST,SPRINGFIELD,OH,45502-1220
311266912,CARILLON PARK RAIL & STEAM SOCIETY,"1000 CARILLON BLVD DAYTON, OH 45409-2023",1000 CARILLON BLVD,DAYTON,OH,45409-2023
311271024,KEEP MIDDLETOWN BEAUTIFUL INC,"1 DONHAM PLAZA MIDDLETOWN, OH 45042-1960",1 DONHAM PLAZA,MIDDLETOWN,OH,45042-1960
311273240,OLD COUNTRY CHURCH TT,"101 S 5TH ST NEWARK, OH 43055-5354",101 S 5TH ST,NEWARK,OH,43055-5354
311273616,WEST JEFFERSON EDUCATION ASSOCIATION,"1 ROUGHRIDER DR W JEFFERSON, OH 43162-1360",1 ROUGHRIDER DR,W JEFFERSON,OH,43162-1360
311276485,THE OHIO STATE UNIVERSITY,"10254 STATE ROUTE 141 KITTS HILL, OH 45645-8664",10254 STATE ROUTE 141,KITTS HILL,OH,45645-8664
311289886,GREATER CINCINNATI AND NORTHERN KENTUCKY OF NAIOP,"1 E 4TH ST STE 1200 CINCINNATI, OH 45202-3708",1 E 4TH ST STE 1200,CINCINNATI,OH,45202-3708
311295421,MARION CATHOLIC HIGH SCHOOL ENDOWMENT,"1001 MT VERNON AVE MARION, OH 43302-5536",1001 MT VERNON AVE,MARION,OH,43302-5536
311295732,F R E S H INC,"10206 CROSBY RD HARRISON, OH 45030-9733",10206 CROSBY RD,HARRISON,OH,45030-9733
311306627,THE OHIO STATE UNIVERSITY,"1000 LOCUST STREET OWENSVILLE, OH 45160-0000",1000 LOCUST STREET,OWENSVILLE,OH,45160-0000
311309948,SIGMA THETQ TAU INC,"1 OHIO AVE ATHENS, OH 45701-0000",1 OHIO AVE,ATHENS,OH,45701-0000
311310365,HERITAGE CENTRE ASSOCIATION INC,"1 S MAIN ST MOUNT VERNON, OH 43050-3223",1 S MAIN ST,MOUNT VERNON,OH,43050-3223
311310940,OAK GROVE VOLUNTEER FIRE AND RESCUE INC,"102 OAK GROVE LN MARIETTA, OH 45750-9419",102 OAK GROVE LN,MARIETTA,OH,45750-9419
311312805,CITY OF MIDDLETOWN EMPLOYEES ASSOCIATION INC,"1 DONHAM PLZ MIDDLETOWN, OH 45042-1932",1 DONHAM PLZ,MIDDLETOWN,OH,45042-1932
311319027,DELAWARE CREATIVE HOUSING HUD 1 INC,"1000 ALPHA DR DELAWARE, OH 43015-8642",1000 ALPHA DR,DELAWARE,OH,43015-8642
311320723,NATIONAL ASSOCIATION FOR THE ADVANCEMENT OF COLORED PEOPLE,"1013 LUDLOW ST HAMILTON, OH 45011-3655",1013 LUDLOW ST,HAMILTON,OH,45011-3655
311329183,AMVETS,"1016 LEO ST DAYTON, OH 45404-1670",1016 LEO ST,DAYTON,OH,45404-1670
311331966,PARENTS OF MURDERED CHILDREN,"102 SAINT ANDRE ST WORTHINGTON, OH 43085-2239",102 SAINT ANDRE ST,WORTHINGTON,OH,43085-2239
311336556,GARRISON CORNER CEMETERY ASSOCIATION,"1 ASPEN CT YELLOW SPGS, OH 45387-1651",1 ASPEN CT,YELLOW SPGS,OH,45387-1651
311336636,SOUTHERN OHIO SYNODICAL WOMENS ORGANIZATION,"1018 NORWOOD DR SIDNEY, OH 45365-2028",1018 NORWOOD DR,SIDNEY,OH,45365-2028
311337258,TOLEDO SCIENCE CENTER,"1 DISCOVERY WAY TOLEDO, OH 43604-1579",1 DISCOVERY WAY,TOLEDO,OH,43604-1579
311339084,DARKE COUNTY SWIM CLUB TEAM STINGRAY INC,"100 PUBLIC SQUARE GREENVILLE, OH 45331-1471",100 PUBLIC SQUARE,GREENVILLE,OH,45331-1471
311339406,SONS OF AMVETS POST 66,"10010 W STATE ROUTE 185 COVINGTON, OH 45318-8896",10010 W STATE ROUTE 185,COVINGTON,OH,45318-8896
311344581,PSI CHI THE NATIONAL HONOR SOCIETY IN PSYCHOLOGY,"1 S GROVE ST WESTERVILLE, OH 43081-2004",1 S GROVE ST,WESTERVILLE,OH,43081-2004
311346996,GORDON PATRICK FOUNDATION,"100 S WERNER ST LEIPSIC, OH 45856-1359",100 S WERNER ST,LEIPSIC,OH,45856-1359
311348669,OHIO ASSOCIATION OF FOODSERVICE AND PIZZA OPERATORS,"1023 WOODLAWN AVE NEWARK, OH 43055-2683",1023 WOODLAWN AVE,NEWARK,OH,43055-2683
311351642,OHIO RECORDERS ASSOCIATION,"10 W BROAD ST STE 2300 COLUMBUS, OH 43215-3484",10 W BROAD ST STE 2300,COLUMBUS,OH,43215-3484
311352234,WASHINGTON COUNTY RIGHT TO LIFE,"101 PINEVIEW CIR MARIETTA, OH 45750-9433",101 PINEVIEW CIR,MARIETTA,OH,45750-9433
311353685,NEIGHBORHOOD HOUSING SERVICES OF HAMILTON INC,"100 S MARTIN LUTHER KING JR BLVD HAMILTON, OH 45011-2824",100 S MARTIN LUTHER KING JR BLVD,HAMILTON,OH,45011-2824
311360199,FOUNDATION DINNERS,"1000 W 5TH AVE LANCASTER, OH 43130-2936",1000 W 5TH AVE,LANCASTER,OH,43130-2936
311362573,FORT ST CLAIR KENNEL CLUB INC,"1010 W RIVERVIEW AVE DAYTON, OH 45402-6426",1010 W RIVERVIEW AVE,DAYTON,OH,45402-6426
311368331,CHILDRENS RESCUE CENTER INC,"1027 W HIGH ST SPRINGFIELD, OH 45506-1306",1027 W HIGH ST,SPRINGFIELD,OH,45506-1306
311369497,CENTRAL OHIO GREEN EDUCATION FUND,"1021 EAST BROAD STREET COLUMBUS, OH 43205-1357",1021 EAST BROAD STREET,COLUMBUS,OH,43205-1357
311370321,DELAWARE CREATIVE HOUSING HUD 2 INC,"1000 ALPHA DR DELAWARE, OH 43015-8642",1000 ALPHA DR,DELAWARE,OH,43015-8642
311374350,GETTLER FAMILY FOUNDATION,"1 FILSON PL APT 4 CINCINNATI, OH 45202-1600",1 FILSON PL APT 4,CINCINNATI,OH,45202-1600
311388267,SILVER MEMORIAL FREE WILL BAPTIST CHURCH,"1023 POSSOM TROT RD GALLIPOLIS, OH 45631-8631",1023 POSSOM TROT RD,GALLIPOLIS,OH,45631-8631
311388687,ATHENS COUNTY SCHOOLS EMP HEALTH & WELFARE BENEFIT FUND & TR FOR,"1 TOMCAT DR GLOUSTER, OH 45732-9335",1 TOMCAT DR,GLOUSTER,OH,45732-9335
311392270,JESUS REVIVALS INC,"100 FAY AVE MARIETTA, OH 45750-9504",100 FAY AVE,MARIETTA,OH,45750-9504
311392407,SOUTH DAYTON DANCE THEATRE,"101 E ALEX BELL RD STE 130 CENTERVILLE, OH 45459-2779",101 E ALEX BELL RD STE 130,CENTERVILLE,OH,45459-2779
311399701,MEMORIAL SOCIETY OF THE COLUMBUS POLICE HONOR GUARD,"1000 N HAGUE AVE COLUMBUS, OH 43204-2121",1000 N HAGUE AVE,COLUMBUS,OH,43204-2121
311408432,DAYTON-MONTGOMERY COUNTY CONVENTION AND VISITORS BUREAU INC,"1 CHAMBER PLZ STE A DAYTON, OH 45402-2426",1 CHAMBER PLZ STE A,DAYTON,OH,45402-2426
311421788,GREEN WAVE ATHLETIC BOOSTERS,"100 GREENWAVE WAY GREENVILLE, OH 45331-2383",100 GREENWAVE WAY,GREENVILLE,OH,45331-2383
311423358,CHARITABLE FOUNDATION OF THE GRAND LODGE OF OHIO F & A M,"1 MASONIC DR SPRINGFIELD, OH 45504-3658",1 MASONIC DR,SPRINGFIELD,OH,45504-3658
311424129,OHR TORAH CINCINNATI,"1 E 4TH ST STE 700 CINCINNATI, OH 45202-3705",1 E 4TH ST STE 700,CINCINNATI,OH,45202-3705
311426804,GREATER VISION MISSIONARY BAPTIST CHURCH,"100 N 20TH ST COLUMBUS, OH 43203-1967",100 N 20TH ST,COLUMBUS,OH,43203-1967
311428783,LEBANON THEATRE COMPANY INC,"10 S MECHANIC ST LEBANON, OH 45036-2202",10 S MECHANIC ST,LEBANON,OH,45036-2202
311433378,DOWNTOWN DAYTON SPECIAL IMPROVEMENT DISTRICT INC,"10 NORTH LUDLOW STREET DAYTON, OH 45402-1854",10 NORTH LUDLOW STREET,DAYTON,OH,45402-1854
311442873,AMERICAN FEDERATION OF STATE COUNTY & MUNICIPAL EMPLOYEES,"102 JOHN ST TRENTON, OH 45067-1306",102 JOHN ST,TRENTON,OH,45067-1306
311444123,KROGER CO HEALTH AND WELFARE BENEFIT TR FOR COLLECTIVELY-BARGAI,"1014 VINE STREET CINCINNATI, OH 45202-1100",1014 VINE STREET,CINCINNATI,OH,45202-1100
311446206,LIVING STONES MEMORIAL CHURCH,"101 W FRANKLIN ST TROY, OH 45373-3209",101 W FRANKLIN ST,TROY,OH,45373-3209
311458839,HISPANIC CHAMBER CINCINNATI USA INC,"00000 EDWARDS RD CINCINNATI, OH 45208-0000",00000 EDWARDS RD,CINCINNATI,OH,45208-0000
311461787,DAYTON SECTION OF THE AMATEUR RADIO PORTION OF THE NWS SKYWARN PROGRAM,"100 CANNONBURY COURT KETTERING, OH 45429-8109",100 CANNONBURY COURT,KETTERING,OH,45429-8109
311461910,THE OHIO STATE UNIVERSITY,"10063 PLAIN CITY GEORGESVILLE RD NE PLAIN CITY, OH 43064-9124",10063 PLAIN CITY GEORGESVILLE RD NE,PLAIN CITY,OH,43064-9124
311463267,SOUTHERN STATE COMMUNITY COLLEGE FOUNDATION,"100 HOBART DR HILLSBORO, OH 45133-9406",100 HOBART DR,HILLSBORO,OH,45133-9406
311464431,MARIEMONT HIGH SCHOOL PARENT TEACHER ORGANIZATION,"1 WARRIOR WAY CINCINNATI, OH 45227-2596",1 WARRIOR WAY,CINCINNATI,OH,45227-2596
311466567,SOCCER ASSOC FOR YOUTH,"10 N UNIVERSITY AVE OXFORD, OH 45056-1348",10 N UNIVERSITY AVE,OXFORD,OH,45056-1348
311467480,XENOS CHRISTIAN FELLOWSHIP OF CINCINNATI,"1025 COMPTON RD CINCINNATI, OH 45231-4818",1025 COMPTON RD,CINCINNATI,OH,45231-4818
311474552,HAND OF GOD MINISTRIES,"10142 SPRINGFIELD PIKE CINCINNATI, OH 45215-1449",10142 SPRINGFIELD PIKE,CINCINNATI,OH,45215-1449
311474943,SONS OF UNION VETERANS OF THE CIVIL WAR,"101 PINE LODGE RD W PORTSMOUTH, OH 45663-8932",101 PINE LODGE RD,W PORTSMOUTH,OH,45663-8932
311490185,LKC FOUNDATION,"1 E 4TH ST STE 1200 CINCINNATI, OH 45202-3708",1 E 4TH ST STE 1200,CINCINNATI,OH,45202-3708
311533634,THE@RICHARD AND MARCY HORVITZ FOUNDATION,"100 PARK AVE STE 215 BEACHWOOD, OH 44122-8201",100 PARK AVE STE 215,BEACHWOOD,OH,44122-8201
311538437,FRIENDS OF FREEDOM SOCIETY INC,"1006 LORNABERRY LN COLUMBUS, OH 43213-3328",1006 LORNABERRY LN,COLUMBUS,OH,43213-3328
311542555,WILLARD BAND AND ORCHESTRA BOOSTERS,"1 FLASHES AVE WILLARD, OH 44890-9394",1 FLASHES AVE,WILLARD,OH,44890-9394
311543181,NATIONAL ALLIANCE FOR THE MENTALLY ILL ATHENS,"100 HOSPITAL DR ATHENS, OH 45701-2301",100 HOSPITAL DR,ATHENS,OH,45701-2301
311544685,JENNINGS MANOR HOUSING CORPORATION,"10200 GRANGER ROAD GARFIELD HEIGHTS, OH 44125-3100",10200 GRANGER ROAD,GARFIELD HEIGHTS,OH,44125-3100
311559939,LIBERTY CENTER SCHOOLS EDUCATIONAL FOUNDATION,"100 TIGER TRL LIBERTY CTR, OH 43532-9642",100 TIGER TRL,LIBERTY CTR,OH,43532-9642
311562347,CANFIELD CARDINALS HOCKEY INC,"100 CARDINAL DR CANFIELD, OH 44406-1111",100 CARDINAL DR,CANFIELD,OH,44406-1111
311569053,STONE OAK COUNTRY CLUB INC,"100 STONE OAK BLVD HOLLAND, OH 43528-9262",100 STONE OAK BLVD,HOLLAND,OH,43528-9262
311579305,FR DAVID HILLER O F M ENDOWMENT FUND,"10235 MILL RD CINCINNATI, OH 45231-1924",10235 MILL RD,CINCINNATI,OH,45231-1924
311582415,OHIO CREDIT UNION FOUNDATION,"10 W BROAD ST STE 1100 COLUMBUS, OH 43215-3482",10 W BROAD ST STE 1100,COLUMBUS,OH,43215-3482
311585255,SACRED HEART RADIO INC,"100 E EIGHTH STREET CINCINNATI, OH 45202-2129",100 E EIGHTH STREET,CINCINNATI,OH,45202-2129
311588032,WAT PRAMAVIHARA INC,"10036 MENOMINEE DR CINCINNATI, OH 45251-1740",10036 MENOMINEE DR,CINCINNATI,OH,45251-1740
311591331,NEW CREATION CHURCH OF FINDLAY,"10146 COUNTY ROAD 40 FINDLAY, OH 45840-9028",10146 COUNTY ROAD 40,FINDLAY,OH,45840-9028
311593230,COMAR INC,"100 S 3RD ST COLUMBUS, OH 43215-4214",100 S 3RD ST,COLUMBUS,OH,43215-4214
311600513,CHESAPEAKE LOCAL TEACHERS ASSOCIATION,"10181 COUNTY ROAD 1 CHESAPEAKE, OH 45619-7032",10181 COUNTY ROAD 1,CHESAPEAKE,OH,45619-7032
311618085,DAYTONA 200 MEMORIAL FUND,"10025 HONDA HILLS RD THORNVILLE, OH 43076-9019",10025 HONDA HILLS RD,THORNVILLE,OH,43076-9019
311625894,N H S II OF HAMILTON INC,"100 S MARTIN LUTHER KING JR BLVD HAMILTON, OH 45011-2824",100 S MARTIN LUTHER KING JR BLVD,HAMILTON,OH,45011-2824
311628371,GLENN B FORDYCE FOUNDATION,"101 N SOUTH ST WILMINGTON, OH 45177-1646",101 N SOUTH ST,WILMINGTON,OH,45177-1646
311628724,ANN W & PETER H WILLIAMS FAMILY FUND,"1 GRANDIN TER CINCINNATI, OH 45208-3405",1 GRANDIN TER,CINCINNATI,OH,45208-3405
311632101,OHIO CHIEF PROBATION OFFICERS ASSOCIATION,"10 W BROAD ST STE 200 COLUMBUS, OH 43215-3472",10 W BROAD ST STE 200,COLUMBUS,OH,43215-3472
311634465,OHIO JUVENILE DIVERSION ASSOCIATION,"1 INDIAN TRL PIQUA, OH 45356-9257",1 INDIAN TRL,PIQUA,OH,45356-9257
311647607,BRESLOV SYNAGOGUE OF COLUMBUS OHIO,"10095 COVAN DR WESTERVILLE, OH 43082-9214",10095 COVAN DR,WESTERVILLE,OH,43082-9214
311656960,MIAMI VALLEY SQUASH FOUNDATION,"10100 INNOVATION DR STE 410 MIAMISBURG, OH 45342-4965",10100 INNOVATION DR STE 410,MIAMISBURG,OH,45342-4965
311657328,ALLELUIA LUTHERAN CHURCH,"10089 INDUSTRIAL PKWY MARYSVILLE, OH 43040-8850",10089 INDUSTRIAL PKWY,MARYSVILLE,OH,43040-8850
311669293,FRIENDS OF THE GREAT MIAMI,"1 E 4TH ST STE 1200 CINCINNATI, OH 45202-3708",1 E 4TH ST STE 1200,CINCINNATI,OH,45202-3708
311678902,FREDERICKTOWN COMMUNITY FOUNDATION,"101 E GAMBIER ST MOUNT VERNON, OH 43050-3509",101 E GAMBIER ST,MOUNT VERNON,OH,43050-3509
311680638,WEST FORK BAPTIST,"10127 W FORK RD GEORGETOWN, OH 45121-8262",10127 W FORK RD,GEORGETOWN,OH,45121-8262
311681221,DIVINE ENCOUNTER MINISTRIES,"10 NICHOLAS CT FAIRFIELD, OH 45014-8639",10 NICHOLAS CT,FAIRFIELD,OH,45014-8639
311681589,JOHN & DOROTHY F MASTERNICK FOUNDATION,"101 W LIBERTY ST GIRARD, OH 44420-2844",101 W LIBERTY ST,GIRARD,OH,44420-2844
311682888,SWANTON CORN FESTIVAL COMMITTEE INC,"100 ORCHARD VIEW DR SWANTON, OH 43558-1262",100 ORCHARD VIEW DR,SWANTON,OH,43558-1262
311690767,THE LIMITED INC EMPLOYEE HEALTH BENEFIT PLAN,"100 EAST EIGHTH STREET CINCINNATI, OH 45202-2129",100 EAST EIGHTH STREET,CINCINNATI,OH,45202-2129
311692293,IRANIAN CULTURAL ASSOCIATION,"10 E WOODSTONE ETNA, OH 43062-9484",10 E WOODSTONE,ETNA,OH,43062-9484
311692792,MIAMI VALLEY BUILDING OFFICIALS COUNCIL,"100 W SPRING VALLEY PIKE CENTERVILLE, OH 45458-3760",100 W SPRING VALLEY PIKE,CENTERVILLE,OH,45458-3760
311694479,P A S T FOUNDATION,"1003 KINNEAR RD COLUMBUS, OH 43212-1150",1003 KINNEAR RD,COLUMBUS,OH,43212-1150
311696648,HANCOCK COUNTY HOME BUILDERS FOUNDATION INC,"101 W SANDUSKY ST STE 200 FINDLAY, OH 45840-3276",101 W SANDUSKY ST STE 200,FINDLAY,OH,45840-3276
311710864,POP KIDS SCHOOL,"101 S LEBANON RD LOVELAND, OH 45140-9336",101 S LEBANON RD,LOVELAND,OH,45140-9336
311725453,THE OHIO STATE UNIVERSITY,"100 COLUMBUS RD FREDERICKTOWN, OH 43019-1216",100 COLUMBUS RD,FREDERICKTOWN,OH,43019-1216
311725746,GREENER PASTURES FOUNDATION,"10050 INNOVATION DR STE 100 MIAMISBURG, OH 45342-4932",10050 INNOVATION DR STE 100,MIAMISBURG,OH,45342-4932
311739154,OHIO RESTAURANT ASSOCIATION EDUCATION FOUNDATION INC,"100 E CAMPUS VIEW BLVD STE 150 COLUMBUS, OH 43235-4636",100 E CAMPUS VIEW BLVD STE 150,COLUMBUS,OH,43235-4636
311742502,SPARKPEOPLE SERVICE INC,"1 E 4TH ST STE 1200 CINCINNATI, OH 45202-3708",1 E 4TH ST STE 1200,CINCINNATI,OH,45202-3708
311755905,HEART FOR AFRICA MINISTRIES INC,"1001 MENDOTA CT DAYTON, OH 45420-1416",1001 MENDOTA CT,DAYTON,OH,45420-1416
311756564,READING POLICE OFFICERS ASSOCIATION,"1000 MARKET ST READING, OH 45215-3209",1000 MARKET ST,READING,OH,45215-3209
311766531,BACKING LOCAL ARTIST DREAMS,"10 S TIMBER HOLLOW DR APT 1022 FAIRFIELD, OH 45014-7798",10 S TIMBER HOLLOW DR APT 1022,FAIRFIELD,OH,45014-7798
311766670,HERITAGE ELEMENTARY SCHOOL PTO,"100 N EAST ST PICKERINGTON, OH 43147-1128",100 N EAST ST,PICKERINGTON,OH,43147-1128
311767871,ISPACE INC,"10020 READING RD CINCINNATI, OH 45241-3108",10020 READING RD,CINCINNATI,OH,45241-3108
311768219,KNOX COUNTY FOUNDATION,"101 E GAMBIER ST MOUNT VERNON, OH 43050-3509",101 E GAMBIER ST,MOUNT VERNON,OH,43050-3509
311772375,JUNIOR WOMANS CLUB OF WYOMING FOUNDATION,"1 WORTHINGTON AVE CINCINNATI, OH 45215-4337",1 WORTHINGTON AVE,CINCINNATI,OH,45215-4337
311776749,MARIETTA RIVERFRONT ROAR INC,"101 FRONT ST MARIETTA, OH 45750-3124",101 FRONT ST,MARIETTA,OH,45750-3124
311784603,NORTHPOINTE COMMUNITY CHURCH,"100 E ORANGE RD LEWIS CENTER, OH 43035-9497",100 E ORANGE RD,LEWIS CENTER,OH,43035-9497
311788510,GERONTOLOGICAL ADVANCED PRACTICE NURSES ASSOCIATION,"10061 LYNDEN OVAL PARMA HEIGHTS, OH 44130-3112",10061 LYNDEN OVAL,PARMA HEIGHTS,OH,44130-3112
311790195,CINCINNATI REDS COMMUNITY FUND,"100 JOE NUXHALL WAY CINCINNATI, OH 45202-4109",100 JOE NUXHALL WAY,CINCINNATI,OH,45202-4109
311800473,MASTER GARDENERS OF GREENE COUNTY,"100 FAIRGROUND RD XENIA, OH 45385-9543",100 FAIRGROUND RD,XENIA,OH,45385-9543
311807834,WENDYS FOUNDATION,"1 DAVE THOMAS BLVD DUBLIN, OH 43017-5452",1 DAVE THOMAS BLVD,DUBLIN,OH,43017-5452
314195260,GREEN LAWN CEMETERY ASSOCIATION,"1000 GREENLAWN AVE COLUMBUS, OH 43223-2618",1000 GREENLAWN AVE,COLUMBUS,OH,43223-2618
314242580,MARIETTA AREA CHAMBER OF COMMERCE,"100 FRONT ST MARIETTA, OH 45750-3142",100 FRONT ST,MARIETTA,OH,45750-3142
314271670,OHIO RESTAURANT ASSN,"100 E CAMPUS VIEW BLVD STE 150 COLUMBUS, OH 43235-4636",100 E CAMPUS VIEW BLVD STE 150,COLUMBUS,OH,43235-4636
314323442,INTERNATIONAL BROTHERHOOD OF TEAMSTERS CHAUFFERS WAREHSMN-HELPS,"100 TIMBER RUN RD ZANESVILLE, OH 43701-7334",100 TIMBER RUN RD,ZANESVILLE,OH,43701-7334
314359680,OHIO CREDIT UNION LEAGUE,"10 W BROAD ST STE 1100 COLUMBUS, OH 43215-3482",10 W BROAD ST STE 1100,COLUMBUS,OH,43215-3482
314364832,AMERICAN LEGION AUXILIARY,"1001 S PENNSYLVANIA AVE WELLSTON, OH 45692-1730",1001 S PENNSYLVANIA AVE,WELLSTON,OH,45692-1730
314379435,CAPITAL UNIVERSITY,"1 COLLEGE AND MAIN COLUMBUS, OH 43209-7812",1 COLLEGE AND MAIN,COLUMBUS,OH,43209-7812
314379459,DENISON UNIVERSITY,"100 W COLLEGE ST GRANVILLE, OH 43023-1100",100 W COLLEGE ST,GRANVILLE,OH,43023-1100
314379464,FIRST BAPTIST CHURCH,"1000 GRANVILLE ST NEWARK, OH 43055-0000",1000 GRANVILLE ST,NEWARK,OH,43055-0000
314379491,HOLZER HOSPITAL FOUNDATION,"100 JACKSON PIKE GALLIPOLIS, OH 45631-1560",100 JACKSON PIKE,GALLIPOLIS,OH,45631-1560
314379518,THE NEIGHBORHOODHOUSE,"1003 LAKE HARBOR CT WESTERVILLE, OH 43081-2762",1003 LAKE HARBOR CT,WESTERVILLE,OH,43081-2762
314379532,OTTERBEIN UNIVERSITY,"1 S GROVE ST WESTERVILLE, OH 43081-2004",1 S GROVE ST,WESTERVILLE,OH,43081-2004
314379806,YOUNG MENS CHRISTIAN ASSOCIATION OF ROSS COUNTY,"100 MILL ST CHILLICOTHE, OH 45601-1662",100 MILL ST,CHILLICOTHE,OH,45601-1662
314387575,BOYS & GIRLS CLUBS OF COLUMBUS INC,"1000 CLEVELAND AVE COLUMBUS, OH 43201-3707",1000 CLEVELAND AVE,COLUMBUS,OH,43201-3707
314405929,FIRST BAPTIST CHURCH,"101 E OTTAWA ST RICHWOOD, OH 43344-1254",101 E OTTAWA ST,RICHWOOD,OH,43344-1254
314414877,FIRST ENGLISH LUTHERAN CHURCH,"1015 E MAIN ST COLUMBUS, OH 43205-2374",1015 E MAIN ST,COLUMBUS,OH,43205-2374
314419355,FREE & ACCEPTED MASONS OF OHIO,"1 MASONIC DR SPRINGFIELD, OH 45504-3658",1 MASONIC DR,SPRINGFIELD,OH,45504-3658
314420546,ST PAULS EPISCOPAL CHURCH,"100 E HIGH ST MOUNT VERNON, OH 43050-3402",100 E HIGH ST,MOUNT VERNON,OH,43050-3402
316022301,NATIONWIDE FOUNDATION,"1 NATIONWIDE PLAZA 1-LC-IRS COLUMBUS, OH 43215-2220",1 NATIONWIDE PLAZA 1-LC-IRS,COLUMBUS,OH,43215-2220
316024390,DENISON UNIVERSITY RESEARCH FOUNDATION,"100 W COLLEGE ST GRANVILLE, OH 43023-1100",100 W COLLEGE ST,GRANVILLE,OH,43023-1100
316027571,JUILFS FOUNDATION,"1004 TECH DR MILFORD, OH 45150-9700",1004 TECH DR,MILFORD,OH,45150-9700